name,type,lat,lon,address
Thrikkakara Municipal Co-operative Hospital,hospital,10.01816,76.34672,"Thrikkakara Municipal Co-operative Hospital, Kakkanad, Ernakulam, Kanayannur, Ernakulam District, Kerala, 682030, India"
vengola govt homoeo dispensary,hospital,10.0971798,76.4511132,"vengola govt homoeo dispensary, Aluva - Munnar Road, Perumbavoor, Kunnathunad, Ernakulam District, Kerala, 683500, India"
"Sunrise Hospital, Ernakulam",hospital,10.0252315,76.3388796,"Sunrise Hospital, Ernakulam, Seaport Airport Road, Thrikkakkara, Ernakulam, Kanayannur, Ernakulam District, Kerala, 682030, India"
N/A,hospital,10.3285722,76.9558507,"Pollachi - Valparai Road, Valparai, Coimbatore District, Tamil Nadu, 642127, India"
Naliyath Medical Chamber,hospital,9.9432462,76.3741513,"Naliyath Medical Chamber, Bypass Road, Mamala, Thiruvamkulam, Kanayannur, Ernakulam District, Kerala, 682305, India"
"Nair's Hospital , Kochi",hospital,9.9502203,76.3179964,"Nair's Hospital , Kochi, Salem - Kochi - Kanyakumari Road, Thykoodam, Ernakulam, Kanayannur, Ernakulam District, Kerala, 682038, India"
Dr. Joys Hospital,hospital,9.9585788,76.3192419,"Dr. Joys Hospital, Salem - Kochi - Kanyakumari Road, Thykoodam, Ernakulam, Kanayannur, Ernakulam District, Kerala, 682019, India"
Varma Hospital,hospital,9.9538555,76.3423588,"Varma Hospital, Ettumanoor - Ernakulam Road, Petta, Thrippunithura, Kanayannur, Ernakulam District, Kerala, 682301, India"
Government Ayurveda Hospital,hospital,9.9438728,76.349062,"Government Ayurveda Hospital, Ettumanoor - Ernakulam Road, Santhi Nagar, Chathari, Thrippunithura, Kanayannur, Ernakulam District, Kerala, 682301, India"
PNVM Hospital and Research Centre,hospital,9.9859833,76.2814393,"PNVM Hospital and Research Centre, Banerji Road, Ernakulam North, Ernakulam, Kanayannur, Ernakulam District, Kerala, 682018, India"
Al Shifa Hospital,hospital,9.9787245,76.2867126,"Al Shifa Hospital, Rajaji Road, Pulleppady, Shenoys, Ernakulam, Kanayannur, Ernakulam District, Kerala, 682035, India"
Sree Sudheendra Medical Mission Hospital,hospital,9.9849328,76.2832964,"Sree Sudheendra Medical Mission Hospital, Chittoor Road, Pulleppady, Ernakulam North, Ernakulam, Kanayannur, Ernakulam District, Kerala, 682018, India"
M A J Hospital,hospital,10.0213004,76.3080439,"M A J Hospital, MAJ Road, Sahrudaya Nagar, Edapally, Ernakulam, Kanayannur, Ernakulam District, Kerala, 682024, India"
Manava Seva Eye Hospital,hospital,10.5570041,76.1729225,"Manava Seva Eye Hospital, Thrissur-Kuttipuram road, Lilly Gardens, Puzhakkal, Amala Nagar, Thrissur, Thrissur District, Kerala, 680555, India"
Kerala Nursing Home,hospital,10.7703747,76.6584356,"Kerala Nursing Home, Court Road, Tharekkad, Palakkad, Palakkad District, Kerala, 678001, India"
Madhavi Amma Hospital,hospital,10.770823,76.6570114,"Madhavi Amma Hospital, Harikkara Street, Manjakulam, Palakkad, Palakkad District, Kerala, 678001, India"
Govt. Homeo Dispensary,hospital,10.8000772,76.5191733,"Govt. Homeo Dispensary, Mankurussi-Kallur Road, Ariyekkarparamb Colony, Mankurussi, Palakkad, Palakkad District, Kerala, 678613, India"
Nirmala Hospital,hospital,9.9446102,76.3727576,"Nirmala Hospital, Kochi - Madurai - Dhanushkodi Road, Mamala, Chathari, Thiruvamkulam, Kanayannur, Ernakulam District, Kerala, 682305, India"
Sacred Heart Hospital,hospital,10.345043,76.234776,"Sacred Heart Hospital, Potta - Moonupeedika Road, Pulloor, Mukundapuram, Thrissur District, Kerala, 680683, India"
Marina hospital,hospital,10.3474325,76.2189728,"Marina hospital, Potta - Moonupeedika Road, Madathikara, Mukundapuram, Thrissur District, Kerala, 680100, India"
Ushus Hospital.,hospital,9.9832872,76.5778883,"Ushus Hospital., MC Road, Kizhakkekara, Muvattupuzha, Ernakulam District, Kerala, 686661, India"
Nediyedath,hospital,10.1717099,76.2119279,"Nediyedath, Kodungallur-Paravur-Ernakulam Highway, Thuruthipuram, Andipillikavu, Paravur, Ernakulam District, Kerala, 683522, India"
Topmost Medical Centre,hospital,10.148035,76.2454786,"Topmost Medical Centre, Aluva-Parur Road, North Paravur, Paravur, Ernakulam District, Kerala, 683520, India"
St. George Hospital,hospital,9.9517544,76.3582963,"St. George Hospital, Seaport Airport Road, Chathari, Thrippunithura, Kanayannur, Ernakulam District, Kerala, 682301, India"
Gauri Sankar Hospital,hospital,10.2125477,76.2003037,"Gauri Sankar Hospital, 35, അഴീക്കോട്- മേത്തല - കൊടുങ്ങല്ലൂര്‍ റോഡ്, TKS Puram, Thiruvanchikulam, Kodungallur, Ernakulam District, Kerala, 682030, India"
City Hospital,hospital,9.9812391,76.2834857,"City Hospital, Mahatma Gandhi Road, Pulleppady, Shenoys, Ernakulam, Kanayannur, Ernakulam District, Kerala, 682035, India"
The Touch Aesthetic Medical Clinic,hospital,9.9770906,76.3170085,"The Touch Aesthetic Medical Clinic, Salem - Kochi - Kanyakumari Road, Vyttila, Ernakulam, Kanayannur, Ernakulam District, Kerala, 682032, India"
Santhi Clinic And Hospital,hospital,10.1470025,76.2294297,"Santhi Clinic And Hospital, Mookambi West Nada Road, North Paravur, Paravur, Ernakulam District, Kerala, 683513, India"
"District Hospital, Thrissur",hospital,10.5229301,76.2174171,"District Hospital, Thrissur, Thrissur, High Road, Chembukkavu, Thrissur, Thrissur District, Kerala, 680001, India"
West Fort,hospital,10.5183579,76.2038058,"West Fort, Javahar Nagar, Poothole, Thrissur, Thrissur District, Kerala, 680004, India"
priya hospital,hospital,10.1751999,76.3302812,"priya hospital, MDR, Kurumassery, Moozhikulam, Aluva, Ernakulam District, Kerala, 683579, India"
Mala Govt. Hospital,hospital,10.2399929,76.273435,"Mala Govt. Hospital, annamanada -mala pallipuram road, Mala, Chalakkudy, Thrissur District, Kerala, 680732, India"
Sholayar Garden Hospital,hospital,10.2935723,76.9455228,"Sholayar Garden Hospital, Valparai - Manicka Kurangumudi Road, Valparai, Coimbatore District, Tamil Nadu, 642127, India"
Akshaya Hospital,hospital,9.9690057,76.299672,"Akshaya Hospital, Kaloor-Kadavanthara Road, Elamkulam, Ernakulam, Kanayannur, Ernakulam District, Kerala, 682020, India"
Vinayaka Ayurveda Hospital,hospital,10.4733918,76.2121049,"Vinayaka Ayurveda Hospital, Kodungallur - Shornur Road, Thrissur, Thrissur District, Kerala, 680027, India"
Dr Raju's Eye Hospital,hospital,9.9647734,76.3191089,"Dr Raju's Eye Hospital, Ettumanoor - Ernakulam Road, Vyttila, Ernakulam, Kanayannur, Ernakulam District, Kerala, 682019, India"
Carmel Hospital,hospital,10.090557,76.3620708,"Carmel Hospital, Aluva - Munnar Road, Ashokapuram, Kodikuthumala, Aluva, Ernakulam District, Kerala, 683101, India"
Bharath Rural Hospital and Training Centre,hospital,10.1807053,76.2057125,"Bharath Rural Hospital and Training Centre, Kodungallur-Paravur-Ernakulam Highway, Madaplathurutrh, Andipillikavu, Paravur, Ernakulam District, Kerala, 683516, India"
Vishnu Ayurveda College,hospital,10.7672982,76.6479602,"Vishnu Ayurveda College, Shoranur Road, Nurani, Palakkad, Palakkad District, Kerala, 678001, India"
Vaidyaratnam Nursing Home,hospital,10.4579628,76.239088,"Vaidyaratnam Nursing Home, Thaikkattussery Road, Thrissur, Thrissur District, Kerala, 680313, India"
St. Vincent de Paul Hospital,hospital,10.4843171,76.233723,"St. Vincent de Paul Hospital, MDR, Cheerachi, Thrissur, Thrissur District, Kerala, 680026, India"
N/A,hospital,9.9879592,76.2942771,"Punarnava Ayurveda Hospital, Kollamparambil lane, Pulleppady, Kaloor, Ernakulam, Kanayannur, Ernakulam District, Kerala, 682011, India"
Metro Healthcare,hospital,10.3437349,76.2081502,"Metro Healthcare, Minor road, Irinjalakuda, Mukundapuram, Thrissur District, Kerala, 680121, India"
"Najath Hospital, Ernakulam",hospital,10.110983,76.3515701,"Najath Hospital, Ernakulam, Bridge Road, Thottakkattukara, Aluva, Ernakulam District, Kerala, 683101, India"
Dr. Pakkai Memorial Hospital,hospital,10.178028,76.3300226,"Dr. Pakkai Memorial Hospital, MDR, Kurumassery, Moozhikulam, Aluva, Ernakulam District, Kerala, 683579, India"
Crescent hospital,hospital,10.6475156,76.544557,"Crescent hospital, Pazhayannur-Alathur Road, Ambedkar Colony, Puducode, edathil colony, Alathur, Palakkad District, Kerala, 678541, India"
"Taluk Head Quarters Hospital, Alathur",hospital,10.6470487,76.5380763,"Taluk Head Quarters Hospital, Pazhayannur-Alathur Road, Ambedkar Colony, Puducode, edathil colony, Alathur, Palakkad District, Kerala, 678541, India"
N/A,hospital,10.1753835,76.2870091,"MDR, Kanakkankadavu, Paravur, Ernakulam District, Kerala, 683578, India"
VM Health care,hospital,10.2095527,76.2956389,"Hospital, Ayurveda Hospital Road, Valiyaparambu, Chalakkudy, Thrissur District, Kerala, 680734, India"
Prana Ayurvedic Centre,hospital,10.1188241,76.3816906,"Prana Ayurvedic Centre, Aluva-Perumbavoor Road, Valiya Pazhampilli Thuruth, Aluva, Ernakulam District, Kerala, 983105, India"
Community Health Centre Koduvayur,hospital,10.6891901,76.6603698,"Community Health Centre Koduvayur, Palakkad - Koduvayur - Meenakshipuram Road, Koduvayur, Chittur, Palakkad District, Kerala, 678501, India"
Comfort,hospital,10.6172029,76.1985724,"Comfort, Athani-Medical College Road, Thrissur, Thrissur District, Kerala, 680596, India"
Casualty,hospital,10.6137919,76.1951365,"Casualty, Hospital Walkway, Edakkulam, Thrissur, Thrissur District, Kerala, 680596, India"
A - Block,hospital,10.6151029,76.1963597,"A - Block, Medical college Road, Edakkulam, Thrissur, Thrissur District, Kerala, 680596, India"
B - Block,hospital,10.6148665,76.196341,"B - Block, Medical college Road, Edakkulam, Thrissur, Thrissur District, Kerala, 680596, India"
N/A,hospital,10.614477,76.1964537,"Medical college Road, Edakkulam, Thrissur, Thrissur District, Kerala, 680596, India"
D - Block,hospital,10.614092,76.1962835,"D - Block, Hospital Walkway, Edakkulam, Thrissur, Thrissur District, Kerala, 680596, India"
E - Block,hospital,10.6138439,76.196279,"E - Block, Hospital Walkway, Edakkulam, Thrissur, Thrissur District, Kerala, 680596, India"
Psychiatry OP,hospital,10.6146728,76.196058,"Psychiatry OP, Medical college Road, Edakkulam, Thrissur, Thrissur District, Kerala, 680596, India"
ECG,hospital,10.6144911,76.1960728,"ECG, Medical college Road, Edakkulam, Thrissur, Thrissur District, Kerala, 680596, India"
Karuna Dialysis Centre,hospital,10.6150967,76.1958479,"Karuna Dialysis Centre, Medical college Road, Edakkulam, Thrissur, Thrissur District, Kerala, 680596, India"
Proctoscopy Room,hospital,10.6143708,76.196012,"Proctoscopy Room, Hospital Walkway, Edakkulam, Thrissur, Thrissur District, Kerala, 680596, India"
Endoscopy Room 2,hospital,10.6142743,76.1956405,"Endoscopy Room 2, Hospital Walkway, Edakkulam, Thrissur, Thrissur District, Kerala, 680596, India"
Retinoscopy,hospital,10.6149237,76.196107,"Retinoscopy, Medical college Road, Edakkulam, Thrissur, Thrissur District, Kerala, 680596, India"
Vision Testing;Dept. of Obsterics & Gynaecology,hospital,10.6148272,76.1961075,"Vision Testing;Dept. of Obsterics & Gynaecology, Medical college Road, Edakkulam, Thrissur, Thrissur District, Kerala, 680596, India"
Vision Testing,hospital,10.6148295,76.1960542,"Vision Testing, Medical college Road, Edakkulam, Thrissur, Thrissur District, Kerala, 680596, India"
ECG,hospital,10.6148285,76.1960806,"ECG, Medical college Road, Edakkulam, Thrissur, Thrissur District, Kerala, 680596, India"
Surgery Room,hospital,10.6148303,76.1960287,"Surgery Room, Medical college Road, Edakkulam, Thrissur, Thrissur District, Kerala, 680596, India"
CT Scan,hospital,10.6138065,76.1962183,"CT Scan, Hospital Walkway, Edakkulam, Thrissur, Thrissur District, Kerala, 680596, India"
3D-4D Ultrasound Scan,hospital,10.6138971,76.1957005,"3D-4D Ultrasound Scan, Hospital Walkway, Edakkulam, Thrissur, Thrissur District, Kerala, 680596, India"
DSA Room,hospital,10.6138307,76.195701,"DSA Room, Hospital Walkway, Edakkulam, Thrissur, Thrissur District, Kerala, 680596, India"
Audiology & Speech Therapy,hospital,10.6138247,76.1960326,"Audiology & Speech Therapy, Hospital Walkway, Edakkulam, Thrissur, Thrissur District, Kerala, 680596, India"
Treatment & Dressing Room,hospital,10.6138969,76.1960317,"Treatment & Dressing Room, Hospital Walkway, Edakkulam, Thrissur, Thrissur District, Kerala, 680596, India"
Dept. of Geneto-Urinary Surgery,hospital,10.6151788,76.1954886,"Dept. of Geneto-Urinary Surgery, Medical college Road, Edakkulam, Thrissur, Thrissur District, Kerala, 680596, India"
Infertility Clinic,hospital,10.615153,76.1962881,"Infertility Clinic, Medical college Road, Edakkulam, Thrissur, Thrissur District, Kerala, 680596, India"
Dept. of Gastroentology,hospital,10.6151909,76.1953222,"Dept. of Gastroentology, Medical college Road, Edakkulam, Thrissur, Thrissur District, Kerala, 680596, India"
Dept. of Opthomology,hospital,10.615154,76.1961727,"Dept. of Opthomology, Medical college Road, Edakkulam, Thrissur, Thrissur District, Kerala, 680596, India"
N/A,hospital,10.6151158,76.1957623,"Medical college Road, Edakkulam, Thrissur, Thrissur District, Kerala, 680596, India"
X-Ray Entrance,hospital,10.6139674,76.1950542,"X-Ray Entrance, Hospital Walkway, Edakkulam, Thrissur, Thrissur District, Kerala, 680596, India"
Surgery,hospital,10.6138738,76.1949694,"Surgery, Hospital Walkway, Edakkulam, Thrissur, Thrissur District, Kerala, 680596, India"
Ortho,hospital,10.6138763,76.194922,"Ortho, Hospital Walkway, Edakkulam, Thrissur, Thrissur District, Kerala, 680596, India"
Observation-Surgery (female),hospital,10.6138833,76.1948615,"Observation-Surgery (female), Hospital Walkway, Edakkulam, Thrissur, Thrissur District, Kerala, 680596, India"
Nursing Station,hospital,10.6138864,76.1948294,"Nursing Station, Hospital Walkway, Edakkulam, Thrissur, Thrissur District, Kerala, 680596, India"
Observation surgery(Female),hospital,10.6138931,76.1947713,"Observation surgery(Female), Hospital Walkway, Edakkulam, Thrissur, Thrissur District, Kerala, 680596, India"
ABC Ward,hospital,10.6181705,76.2005703,"ABC Ward, Athani-Medical College Road, Thrissur, Thrissur District, Kerala, 680596, India"
Duty Nurse,hospital,10.6183764,76.200408,"Duty Nurse, Athani-Medical College Road, Thrissur, Thrissur District, Kerala, 680596, India"
Ayurveda Block,hospital,10.6184238,76.2000499,"Ayurveda Block, Athani-Medical College Road, Thrissur, Thrissur District, Kerala, 680596, India"
OP Room (Ayurveda),hospital,10.6184647,76.2000204,"OP Room (Ayurveda), Athani-Medical College Road, Thrissur, Thrissur District, Kerala, 680596, India"
OP Registration (Ayurveda),hospital,10.6183487,76.200121,"OP Registration (Ayurveda), Athani-Medical College Road, Thrissur, Thrissur District, Kerala, 680596, India"
Pharmacy,hospital,10.6184083,76.200023,"Pharmacy, Athani-Medical College Road, Thrissur, Thrissur District, Kerala, 680596, India"
Female Ward,hospital,10.6184992,76.1998782,"Female Ward, Athani-Medical College Road, Thrissur, Thrissur District, Kerala, 680596, India"
Male Ward,hospital,10.6182069,76.1997735,"Male Ward, Athani-Medical College Road, Thrissur, Thrissur District, Kerala, 680596, India"
Cord Room,hospital,10.6180746,76.201387,"Cord Room, Athani-Medical College Road, Thrissur, Thrissur District, Kerala, 680596, India"
Insurance Medical Room,hospital,10.618084,76.2012758,"Insurance Medical Room, Athani-Medical College Road, Thrissur, Thrissur District, Kerala, 680596, India"
Pharmacy,hospital,10.6180805,76.2013118,"Pharmacy, Athani-Medical College Road, Thrissur, Thrissur District, Kerala, 680596, India"
Electrical Room,hospital,10.6180762,76.20135,"Electrical Room, Athani-Medical College Road, Thrissur, Thrissur District, Kerala, 680596, India"
Medicine Clinic,hospital,10.6181568,76.2013062,"Medicine Clinic, Athani-Medical College Road, Thrissur, Thrissur District, Kerala, 680596, India"
Chest OP,hospital,10.6181536,76.2013449,"Chest OP, Athani-Medical College Road, Thrissur, Thrissur District, Kerala, 680596, India"
Dental OP,hospital,10.618151,76.2013804,"Dental OP, Athani-Medical College Road, Thrissur, Thrissur District, Kerala, 680596, India"
Casualty,hospital,10.6181466,76.2014179,"Casualty, Athani-Medical College Road, Thrissur, Thrissur District, Kerala, 680596, India"
Registration,hospital,10.6181451,76.2014494,"Registration, Athani-Medical College Road, Thrissur, Thrissur District, Kerala, 680596, India"
Laboratory,hospital,10.6181433,76.2014851,"Laboratory, Athani-Medical College Road, Thrissur, Thrissur District, Kerala, 680596, India"
Eye OP,hospital,10.6181223,76.2011802,"Eye OP, Athani-Medical College Road, Thrissur, Thrissur District, Kerala, 680596, India"
Nurse's Room,hospital,10.6181916,76.2010275,"Nurse's Room, Athani-Medical College Road, Thrissur, Thrissur District, Kerala, 680596, India"
Duty Nurse,hospital,10.6181979,76.2009838,"Duty Nurse, Athani-Medical College Road, Thrissur, Thrissur District, Kerala, 680596, India"
Pulmunary OP,hospital,10.6182062,76.2009127,"Pulmunary OP, Athani-Medical College Road, Thrissur, Thrissur District, Kerala, 680596, India"
Sleep Lab,hospital,10.6182152,76.200859,"Sleep Lab, Athani-Medical College Road, Thrissur, Thrissur District, Kerala, 680596, India"
Female Ward,hospital,10.6181024,76.2009336,"Female Ward, Athani-Medical College Road, Thrissur, Thrissur District, Kerala, 680596, India"
Nursing,hospital,10.6182769,76.2010974,"Nursing, Athani-Medical College Road, Thrissur, Thrissur District, Kerala, 680596, India"
Conference Hall,hospital,10.6183357,76.2011072,"Conference Hall, Athani-Medical College Road, Thrissur, Thrissur District, Kerala, 680596, India"
Medicine Storeroom,hospital,10.6183819,76.2011131,"Medicine Storeroom, Athani-Medical College Road, Thrissur, Thrissur District, Kerala, 680596, India"
Sitting Place,hospital,10.6184928,76.2011327,"Sitting Place, Athani-Medical College Road, Thrissur, Thrissur District, Kerala, 680596, India"
Pharmacy,hospital,10.6184369,76.2011719,"Pharmacy, Athani-Medical College Road, Thrissur, Thrissur District, Kerala, 680596, India"
Superintendent,hospital,10.6184359,76.20122,"Superintendent, Athani-Medical College Road, Thrissur, Thrissur District, Kerala, 680596, India"
Office,hospital,10.618433,76.2012641,"Office, Athani-Medical College Road, Thrissur, Thrissur District, Kerala, 680596, India"
Junior Superintendent,hospital,10.6184301,76.2012984,"Junior Superintendent, Athani-Medical College Road, Thrissur, Thrissur District, Kerala, 680596, India"
Treasurer,hospital,10.618432,76.2013367,"Treasurer, Athani-Medical College Road, Thrissur, Thrissur District, Kerala, 680596, India"
X-Ray,hospital,10.6183781,76.2012993,"X-Ray, Athani-Medical College Road, Thrissur, Thrissur District, Kerala, 680596, India"
RMO,hospital,10.6183393,76.2012745,"RMO, Athani-Medical College Road, Thrissur, Thrissur District, Kerala, 680596, India"
Doctor's Duty Room,hospital,10.6182994,76.201279,"Doctor's Duty Room, Athani-Medical College Road, Thrissur, Thrissur District, Kerala, 680596, India"
N/A,hospital,10.6139774,76.1946817,"Hospital Walkway, Edakkulam, Thrissur, Thrissur District, Kerala, 680596, India"
N/A,hospital,10.6139692,76.1947097,"Hospital Walkway, Edakkulam, Thrissur, Thrissur District, Kerala, 680596, India"
Female PG Room,hospital,10.6139672,76.1947349,"Female PG Room, Hospital Walkway, Edakkulam, Thrissur, Thrissur District, Kerala, 680596, India"
Ophthalmology Room,hospital,10.6139658,76.1947697,"Ophthalmology Room, Hospital Walkway, Edakkulam, Thrissur, Thrissur District, Kerala, 680596, India"
ENT Room,hospital,10.6139687,76.1947972,"ENT Room, Hospital Walkway, Edakkulam, Thrissur, Thrissur District, Kerala, 680596, India"
Trauma Resuscitation Room,hospital,10.6139631,76.1948612,"Trauma Resuscitation Room, Hospital Walkway, Edakkulam, Thrissur, Thrissur District, Kerala, 680596, India"
Procedure Room,hospital,10.6139621,76.1949122,"Procedure Room, Hospital Walkway, Edakkulam, Thrissur, Thrissur District, Kerala, 680596, India"
Procedure Room,hospital,10.6139573,76.1949593,"Procedure Room, Hospital Walkway, Edakkulam, Thrissur, Thrissur District, Kerala, 680596, India"
Resuscitation Room,hospital,10.6139583,76.1950054,"Resuscitation Room, Hospital Walkway, Edakkulam, Thrissur, Thrissur District, Kerala, 680596, India"
Casualty counter,hospital,10.6137947,76.1951747,"Casualty counter, Hospital Walkway, Edakkulam, Thrissur, Thrissur District, Kerala, 680596, India"
Medical Emergency,hospital,10.6139542,76.1951781,"Medical Emergency, Hospital Walkway, Edakkulam, Thrissur, Thrissur District, Kerala, 680596, India"
Nursing Station,hospital,10.6139086,76.1952309,"Nursing Station, Hospital Walkway, Edakkulam, Thrissur, Thrissur District, Kerala, 680596, India"
Medicine,hospital,10.6138476,76.1952322,"Medicine, Hospital Walkway, Edakkulam, Thrissur, Thrissur District, Kerala, 680596, India"
ECG Room,hospital,10.615727,76.1880642,"ECG Room, Medical college Road, Edakkulam, Thrissur, Thrissur District, Kerala, 680596, India"
Preventive Medicine,hospital,10.613915,76.1955027,"Preventive Medicine, Hospital Walkway, Edakkulam, Thrissur, Thrissur District, Kerala, 680596, India"
Stomach Wash Room,hospital,10.6139163,76.1956321,"Stomach Wash Room, Hospital Walkway, Edakkulam, Thrissur, Thrissur District, Kerala, 680596, India"
Medical Observation Ward(Female),hospital,10.6138361,76.1956269,"Medical Observation Ward(Female), Hospital Walkway, Edakkulam, Thrissur, Thrissur District, Kerala, 680596, India"
Medical Observation Ward (Male),hospital,10.6138539,76.1954522,"Medical Observation Ward (Male), Hospital Walkway, Edakkulam, Thrissur, Thrissur District, Kerala, 680596, India"
Central Research Laboratary,hospital,10.6139188,76.1948802,"Central Research Laboratary, Hospital Walkway, Edakkulam, Thrissur, Thrissur District, Kerala, 680596, India"
Westend Eye Hospitals,hospital,9.9880943,76.2827224,"Westend Eye Hospitals, Chittoor Road, Pulleppady, Ernakulam North, Ernakulam, Kanayannur, Ernakulam District, Kerala, 682018, India"
Sarathy Ayurveda Clinic,hospital,10.1093589,76.3589857,"Sarathy Ayurveda Clinic, Aluva Bypass Road, Thottakkattukara, Aluva, Ernakulam District, Kerala, 683101, India"
Govt Ayurveda Hospital ഗവൺമെന്റ് ആയൂർവേദ ആശുപത്രി,hospital,10.1238777,76.3475843,"Govt Ayurveda Hospital ഗവൺമെന്റ് ആയൂർവേദ ആശുപത്രി, GCDA Road, Thottakkattukara, Aluva, Ernakulam District, Kerala, 683108, India"
ANIMAL DISEASE CONTROL PROJECT THRISSUR,hospital,10.5202667,76.2415681,"ANIMAL DISEASE CONTROL PROJECT THRISSUR, PARAVATTANI, Paravattani - Nellikunnu Road, Chelakkottukara, Thrissur, Thrissur District, Kerala, 680005, India"
Govt Homeo Dispensary,hospital,10.0160984,76.2888545,"Govt Homeo Dispensary, Play Ground Road, Lords Cottages, Ernakulam, Kanayannur, Ernakulam District, Kerala, 682026, India"
Giridhar Eye Institute,hospital,9.9641496,76.3050675,"Giridhar Eye Institute, Ponneth Temple Road, Elamkulam, Kochi, Kanayannur, Ernakulam District, Kerala, 682020, India"
ICU,hospital,10.6139228,76.1949157,"ICU, Hospital Walkway, Edakkulam, Thrissur, Thrissur District, Kerala, 680596, India"
Gov.Homeo Dispensary- valakkavu,hospital,10.5174566,76.2961673,"Gov.Homeo Dispensary- valakkavu, kannara moorkinikara road, Thrissur, Thrissur District, Kerala, 680014, India"
ahalya eye hospital,hospital,10.5688492,76.1644422,"ahalya eye hospital, Thrissur-Kuttipuram road, Laksham Veedu, Peramangalam, Thrissur, Thrissur District, Kerala, 680555, India"
Taluk Headquarters Hospital,hospital,10.295896,76.3407747,"Taluk Headquarters Hospital, Palace Road, Chalakudy, Chalakkudy, Thrissur District, Kerala, 680307, India"
Government Hospital New Block,hospital,10.2971096,76.3409722,"Government Hospital New Block, Govt. Hospital Road, Chalakudy, Chalakkudy, Thrissur District, Kerala, 680307, India"
"Government Hospital ,Chalakudy",hospital,10.2964737,76.3408068,"Government Hospital ,Chalakudy, Palace Road, Chalakudy, Chalakkudy, Thrissur District, Kerala, 680307, India"
Primary Health Centre Vilvattom,hospital,10.555753,76.2383452,"Primary Health Centre Vilvattom, Police Academy Road, Thrissur, Thrissur District, Kerala, 680631, India"
Government Hospital Kodakara,hospital,10.3764307,76.3083021,"Government Hospital Kodakara, Kodakara Vellikulangara Road, Kodakara, Chalakkudy, Thrissur District, Kerala, 680684, India"
Ephphatha Softech എഫഥാ സ്പീച്ച് ആന്റ് ഹിയറിങ് സെന്റർ,hospital,10.006847,76.3052486,"Ephphatha Softech എഫഥാ സ്പീച്ച് ആന്റ് ഹിയറിങ് സെന്റർ, Old NH 47, Sonia Nagar, Ernakulam, Kanayannur, Ernakulam District, Kerala, 682565, India"
Primary Health Centre Koonammavu,hospital,10.1011548,76.2659238,"Primary Health Centre Koonammavu, Koonammavu - Paathalam Road, Kongorpilly, Koonammavu, Paravur, Ernakulam District, Kerala, 683518, India"
Rajagiri Hospital Emergency Services Entrance,hospital,10.0876999,76.3887934,"Rajagiri Hospital Emergency Services Road, Aluva, Ernakulam District, Kerala, India"
Rajagiri Hospital Main Entrance,hospital,10.0878907,76.388261,"Rajagiri Hospital Main Entrance, Rajagiri Hospital Access Road, Aluva, Ernakulam District, Kerala, 683112, India"
Holy Family Medical Center,hospital,10.471975,76.2422664,"Holy Family Medical Center, High Road, Ollur, Thrissur, Thrissur District, Kerala, 680313, India"
pannikod hospital,hospital,10.7742614,76.4296185,"pannikod hospital, Palakkad-Ponnani Road, Ottappalam, Palakkad District, Kerala, 679103, India"
homeo doctor,hospital,10.7010589,76.7389378,"homeo doctor, Palakkad-Chittur Road, Polpulli, Chittur, Palakkad District, Kerala, 678552, India"
"GOVT.Vetinary Hospital,Kazhani Chungham",hospital,10.6539028,76.500625,"GOVT.Vetinary Hospital,Kazhani Chungham, Kazhani Chungam Thennilapuram Road, Alathur, Palakkad District, Kerala, 678543, India"
"Vathiyayath Hospital, Perumbavoor",hospital,10.1102479,76.4757764,"Vathiyayath Hospital, Perumbavoor, Perumbavoor-Puthencruz road, Pathipalam, Perumbavoor, Kunnathunad, Ernakulam District, Kerala, 683542, India"
"Ahalia Foundation Eye Hospital, Kattungachira",hospital,10.362468,76.2187994,"Ahalia Foundation Eye Hospital, Kattungachira, Kodungallur - Shornur Road, Irinjalakuda, Mukundapuram, Thrissur District, Kerala, 680125, India"
Luke Memorial Eye Hospital,hospital,10.1145519,76.4741792,"Luke Memorial Eye Hospital, Aluva - Munnar Road, Perumbavoor, Kunnathunad, Ernakulam District, Kerala, 683542, India"
Cochin Ariya Vaidya Sala,hospital,9.9696286,76.3380557,"Cochin Ariya Vaidya Sala, Eroor Road, Eroor, Ernakulam, Kanayannur, Ernakulam District, Kerala, 682306, India"
The Irinjalakuda Co-Operative Hospital Ltd.,hospital,10.332772,76.2167931,"kolothumpadi, Kodungallur - Shornur Road, Nadavaramb, lakshamveedu colony, Vellangallur, Mukundapuram, Thrissur District, Kerala, 680661, India"
P.M.M. Hsopital,hospital,10.1643998,76.4363587,"P.M.M. Hsopital, Aluva Kalady Road, Mattoor Harijan Colony, Kalady, Aluva, Ernakulam District, Kerala, 683574, India"
R C M Eye Hospital,hospital,9.9467902,76.3522044,"R C M Eye Hospital, Old SH20, Chathari, Ernakulam, Kanayannur, Ernakulam District, Kerala, 682301, India"
Vijaya Institute of Medical Sciences,hospital,9.9700978,76.2991192,"Vijaya Institute of Medical Sciences, Kaloor-Kadavanthara Road, Elamkulam, Ernakulam, Kanayannur, Ernakulam District, Kerala, 682020, India"
Ahalia Foundation Eye Hospital,hospital,10.1446776,76.2262894,"Ahalia Foundation Eye Hospital, Republic Road, Kalikulangara, North Paravur, Paravur, Ernakulam District, Kerala, 691301, India"
Sanjoe Hospital,hospital,10.1142952,76.4726996,"Sanjoe Hospital, Aluva - Munnar Road, Perumbavoor, Kunnathunad, Ernakulam District, Kerala, 683542, India"
Dr Rani Menons Eye Clinic,hospital,10.5203741,76.1952355,"Dr Rani Menons Eye Clinic, Thrissur - Kanjani - Vadanappally Road, West Fort, Thrissur, Thrissur District, Kerala, 680004, India"
S. N. Mission Hospital,hospital,10.1125425,76.4807714,"S. N. Mission Hospital, union bank road, Pathipalam, Perumbavoor, Kunnathunad, Ernakulam District, Kerala, 683542, India"
Arya Vaidya Asramam Ayurveda Hospital,hospital,10.2107027,76.2034558,"Arya Vaidya Asramam Ayurveda Hospital, 35, Kodungallur-Paravur-Ernakulam Highway, TKS Puram, Thiruvanchikulam, Lokamaleswaram, Kodungallur, Thrissur District, Kerala, 680664, India"
Silverline Hospital,hospital,9.9653574,76.3003696,"Silverline Hospital, KP Vallon Road, Elamkulam, Ernakulam, Kanayannur, Ernakulam District, Kerala, 682020, India"
Bishop Alappatt Mission Hospital,hospital,10.3951067,76.1645168,"Bishop Alappatt Mission Hospital, Karanchira Road, Mukundapuram, Ernakulam District, Kerala, 680702, India"
Cimar Cochin Hospital,hospital,10.0515389,76.296743,"Cimar Cochin Hospital, Kodungallur-Paravur-Ernakulam Highway, Edappally North, Ernakulam, Kanayannur, Ernakulam District, Kerala, 682031, India"
UB Trust Hospital and Diagnostic Centre,hospital,10.0803996,76.2704929,"UB Trust Hospital and Diagnostic Centre, Chettibhagam Main Road, Varapuzha, Varappuzha, Thirumuppam, Paravur, Ernakulam District, Kerala, 683517, India"
"Vasan Eye Care Hospital, Palarivattom",hospital,10.0099874,76.3126431,"Vasan Eye Care Hospital, Palarivattom, Salem - Kochi - Kanyakumari Road, Sahrudaya Nagar, Edapally, Ernakulam, Kanayannur, Ernakulam District, Kerala, 682024, India"
Paul's Hospital,hospital,9.9883115,76.2957781,"Paul's Hospital, Vattakkattu Road east, Kaloor, Ernakulam, Kanayannur, Ernakulam District, Kerala, 682017, India"
Dr. C. K. P Hospital,hospital,10.0999403,76.347245,"Dr. C. K. P Hospital, Salem - Kochi - Kanyakumari Highway, S N Puram, Aluva, Ernakulam District, Kerala, 683101, India"
M.V. Joseph Memorial Hospital,hospital,10.1111694,76.4815673,"M.V. Joseph Memorial Hospital, Old MuvattuPuzha Road, Vattakkattupady, Kunnathunad, Ernakulam District, Kerala, 683542, India"
Nangelil Hospital,hospital,10.0698012,76.6023036,"Nangelil Hospital, Aluva - Munnar Road, Kothamangalam, Ernakulam District, Kerala, 686691, India"
CCMK Hospitals,hospital,10.3135985,76.3366328,"CCMK Hospitals, MDR, Chalakudy, Chalakkudy, Thrissur District, Kerala, 680307, India"
Kerala Ayurveda Hospital,hospital,10.1120322,76.353815,"Kerala Ayurveda Hospital, Hill Road, Thottakkattukara, Aluva, Ernakulam District, Kerala, 683585, India"
Dhanya Mission Hospital,hospital,10.3310238,76.3245749,"Dhanya Mission Hospital, Salem - Kochi - Kanyakumari Highway, Potta, Chalakkudy, Thrissur District, Kerala, 680722, India"
Thrikkakara Grama Panchayat Co-Operative Hospital,hospital,10.0190155,76.3436562,"Thrikkakara Grama Panchayat Co-Operative Hospital, Seaport Airport Road, Kakkanad, Ernakulam, Kanayannur, Ernakulam District, Kerala, 682030, India"
SD Tata Hospital,hospital,9.9280376,76.3912795,"SD Tata Hospital, Bypass Road, Chottanikkara, Kanayannur, Ernakulam District, Kerala, 682312, India"
Focus Eye Hospital,hospital,9.9942959,76.2954314,"Focus Eye Hospital, Azad Road, Kaloor, Ernakulam, Kanayannur, Ernakulam District, Kerala, 682017, India"
St. Joseph's Hospital,hospital,10.0649895,76.626817,"St. Joseph's Hospital, Kochi - Madurai - Dhanushkodi Rd, Angady, Dharmagiri, Kothamangalam, Kerala, Kothamangalam Bypass Road, Kothamangalam, Ernakulam District, Kerala, 686691, India"
Dr. Noushad's ENT Hospital and Research Centre,hospital,9.9869551,76.3167563,"Dr. Noushad's ENT Hospital and Research Centre, Salem - Kochi - Kanyakumari Road, Pallinada, Ernakulam, Kanayannur, Ernakulam District, Kerala, 682032, India"
St. Philomina's Mission Hospital,hospital,10.2105576,76.4482945,"St. Philomina's Mission Hospital, Church Road, Chandrapura, Manjapra, Aluva, Ernakulam District, Kerala, 683577, India"
St. Joseph's Hospital,hospital,10.0601909,76.3014141,"St. Joseph's Hospital, Glass Factory Road, Manjummel, Paravur, Ernakulam District, Kerala, 683501, India"
Arogyalayam Hospital,hospital,10.1111192,76.3503215,"Arogyalayam Hospital, Aluva Bypass Road, Thottakkattukara, Aluva, Ernakulam District, Kerala, 683101, India"
Parathuvayalil Hospital,hospital,10.0641061,76.5204674,"Parathuvayalil Hospital, MC Road, Kunnathunad, Ernakulam District, Kerala, 683541, India"
Anwar Memorial Hospital,hospital,10.1083057,76.3528917,"Anwar Memorial Hospital, Poorna nagar, Thottakkattukara, Aluva, Ernakulam District, Kerala, 683101, India"
Oushadhi Panchkarma Hospital and Research Institute,hospital,10.5318467,76.2099155,"Oushadhi Panchkarma Hospital and Research Institute, Vellat lane, Kottappuram, Thrissur, Thrissur District, Kerala, 680001, India"
Specialists' Hospital,hospital,9.9905344,76.2860182,"Specialists' Hospital, KCM Mather Road, Ernakulam North, Ernakulam, Kanayannur, Ernakulam District, Kerala, 682018, India"
Punarnava Ayurveda Hospital,hospital,10.0441967,76.2977904,"Punarnava Ayurveda Hospital, Kodungallur-Paravur-Ernakulam Highway, Edappally North, Ernakulam, Kanayannur, Ernakulam District, Kerala, 682024, India"
Susruta Eye Hospital,hospital,10.0234595,76.3410974,"Susruta Eye Hospital, Antony Joseph, Kakkanad, Ernakulam, Kanayannur, Ernakulam District, Kerala, 682030, India"
Gyno Speciality Hospital,hospital,10.1551857,76.3532773,"Gyno Speciality Hospital, Manjaly Athani Road, Athani, Aluva, Ernakulam District, Kerala, 683101, India"
Ahalia Foundation And Eye Hospital,hospital,10.521431,76.21236,"Ahalia Foundation And Eye Hospital, Kuruppam Road, Poothole, Thrissur, Thrissur District, Kerala, 680001, India"
Saroja Hospital,hospital,10.5291187,76.211721,"Saroja Hospital, Thrissur - Shornur Road, Kottappuram, Thrissur, Thrissur District, Kerala, 680022, India"
Government Ayurveda Hospital,hospital,10.0594005,76.2478738,"Government Ayurveda Hospital, Kadamakkudy road( pocket road), Kadamakkudy, Ernakulam, Kanayannur, Ernakulam District, Kerala, 682027, India"
Cochin Hospital,hospital,9.964925,76.2875041,"Cochin Hospital, Mahatma Gandhi Road, Pallimukku, Ernakulam South, Ernakulam, Kanayannur, Ernakulam District, Kerala, 682016, India"
Sarathy Ayurvedic Hospital,hospital,10.1007404,76.3231815,"Sarathy Ayurvedic Hospital, Canal Road, Manakkalathetta Colony, Valavan Mali, Paravur, Ernakulam District, Kerala, 683110, India"
Chaitanya Eye Hospital and Research Institute,hospital,9.9599096,76.2903858,"Chaitanya Eye Hospital and Research Institute, Alappat Road, Ravipuram, Perumanoor, Ernakulam, Kanayannur, Ernakulam District, Kerala, 682011, India"
"Aditya Eye Hospital, Ernakulam",hospital,10.0340046,76.3331406,"Aditya Eye Hospital, Ernakulam, Edappally Pukkattupady Road, Sahrudaya Nagar, Thrikkakkara, Ernakulam, Kanayannur, Ernakulam District, Kerala, 682021, India"
St. Thomas Hospital,hospital,10.1864757,76.499345,"St. Thomas Hospital, Pananchickal Kadavu Road, Chammani, Malayattoor, Aluva, Ernakulam District, Kerala, 683574, India"
Vijayasree Eye Hospital,hospital,10.5248467,76.2076735,"Vijayasree Eye Hospital, Dilkhush Road, Kottappuram, Thrissur, Thrissur District, Kerala, 680020, India"
Shajy Hospital,hospital,10.1471931,76.2309853,"Shajy Hospital, Mookambi West Nada Road, North Paravur, Paravur, Ernakulam District, Kerala, 683516, India"
Evershine Hospital,hospital,10.0192427,76.3045053,"Evershine Hospital, NH-544, Sahrudaya Nagar, Edapally, Ernakulam, Kanayannur, Ernakulam District, Kerala, 682024, India"
"Ahalia Foundation Eye Hospital, Muvattupuzha",hospital,9.9896838,76.5726739,"Ahalia Foundation Eye Hospital, Muvattupuzha, Kochi - Madurai - Dhanushkodi Road, Kizhakkekara, Velloorkunnam, Muvattupuzha, Ernakulam District, Kerala, 686661, India"
കരുണ ആശുപത്രി,hospital,9.9898553,76.5773519,"Karuna Hospital, MC Road, Kizhakkekara, Velloorkunnam, Muvattupuzha, Ernakulam District, Kerala, 686673, India"
Naivedya Ayurvedic Hospital and Research Centre,hospital,9.9809006,76.313999,"Naivedya Ayurvedic Hospital and Research Centre, Aysha Road, Ponnurunni, Ernakulam, Kanayannur, Ernakulam District, Kerala, 682019, India"
Alpha ENT Head and Neck Hospital,hospital,10.0032624,76.2953791,"Alpha ENT Head and Neck Hospital, Deshabhimani Road, Elamakkara, Ernakulam, Kanayannur, Ernakulam District, Kerala, 682017, India"
Ayurvaid Hospital,hospital,9.9634535,76.3010952,"Ayurvaid Hospital, South End Lane, Elamkulam, Ernakulam, Kanayannur, Ernakulam District, Kerala, 682020, India"
Palace Hospital,hospital,10.3188729,76.3200601,"Palace Hospital, Chalakudy-Ezhunallathupatha Road, V.R Puram, Chalakkudy, Thrissur District, Kerala, 680722, India"
Maria Theresa Hospital,hospital,10.2893094,76.2772058,"Maria Theresa Hospital, Kodakara - Kodungallur Road, Kundai, Chalakkudy, Thrissur District, Kerala, 680697, India"
"Vimala Hospital, Ernakulam",hospital,10.144605,76.4246723,"Vimala Hospital, Ernakulam, Aluva Kalady Road, Koollikara, Chowara, Kanjoor, Aluva, Ernakulam District, Kerala, 683575, India"
Chaithanya ENT Hospital,hospital,9.9664724,76.2968718,"Chaithanya ENT Hospital, Sahodaran Ayyappan Road, Elamkulam, Ernakulam, Kanayannur, Ernakulam District, Kerala, 682016, India"
I Vision Eye Hospital,hospital,10.5052987,76.2110625,"I Vision Eye Hospital, Thrissur - Irinjalakkuda Road, Kottappuram, Koorkanchery, Thrissur, Thrissur District, Kerala, 680007, India"
Craft Hospital,hospital,10.2343816,76.1931574,"Craft Hospital, Chandappura-Eriyad Road, Chandapura, Kodungallur, Thrissur District, Kerala, 680664, India"
Alpha palliative care,hospital,10.522534,76.2064257,"Alpha palliative care, Pottayil Lane, Poothole, Thrissur, Thrissur District, Kerala, 680004, India"
anthikkad government homeo dispensary,hospital,10.4539683,76.0978998,"anthikkad government homeo dispensary, East Tippu Sultan Road, Cherkara, Chavakkad, Thrissur District, Kerala, 680569, India"
N/A,hospital,10.5240874,76.2169668,"Swaraj Round, Kottappuram, Thrissur, Thrissur District, Kerala, 680001, India"
"Govt Ayurveda Dispensary, Vellangallur;govt.ayurveda dispensary",hospital,10.3062023,76.220201,"Govt Ayurveda Dispensary, Vellangallur;govt.ayurveda dispensary, Ayurveda Hospital Road, Vellangallur, Mukundapuram, Thrissur District, Kerala, 680662, India"
Mnmvs Neethi Medical Stores,hospital,10.3046886,76.2180922,"Mnmvs Neethi Medical Stores, vellangallur-mathilakam road, Vellangallur, Mukundapuram, Thrissur District, Kerala, 680662, India"
Santhigiri Ayurveda And Siddha Hospital,hospital,10.524892,76.2224963,"Santhigiri Ayurveda And Siddha Hospital, C R Iyyunni Road, Mission Quarters, Chembukkavu, Thrissur, Thrissur District, Kerala, 680020, India"
bag hospital,hospital,10.5196694,76.1914372,"bag hospital, Thrissur - Kanjani - Vadanappally Road, West Fort, Thrissur, Thrissur District, Kerala, 680611, India"
N/A,hospital,10.4786793,76.1151644,"Chavakkad-Mullassery-Kanjany -Peringottukara Road, Kanjany, Thrissur, Thrissur District, Kerala, 680617, India"
AYUSH PHC MANALUR HOMOEO,hospital,10.4777255,76.114134,"AYUSH PHC MANALUR HOMOEO, Chavakkad-Mullassery-Kanjany -Peringottukara Road, Kanjany, Thrissur, Thrissur District, Kerala, 680612, India"
Paduva hospital,hospital,10.4449692,76.1273053,"Paduva hospital, Padhuva road, Akaayi Colony Ward 8, Puthenpeedika, Thrissur, Thrissur District, Kerala, 680642, India"
Rayhan Eye Clinic,hospital,10.4143515,76.107036,"Rayhan Eye Clinic, Thriprayar Beach Road, Thriprayar, Chavakkad, Thrissur District, Kerala, 680566, India"
Kerala Police Academy Hospital,hospital,10.5615169,76.2359588,"Kerala Police Academy Hospital, Viyyur - Thanikkudam Road, Thanikkudam, Thrissur, Thrissur District, Kerala, 680631, India"
primary health centre karamuck,hospital,10.4804327,76.1005891,"primary health centre karamuck, Sree Narayana Guru Road, Kandassankadavu, Manaloor, Thrissur, Thrissur District, Kerala, 680613, India"
Macare Valapad,hospital,10.3988813,76.1145289,"Macare Valapad, Ponnani-Chavakkad-Kodungallur Highway, Mathilakam, Chavakkad, Thrissur District, Kerala, 680567, India"
"Community Health Centre, Anthikkad",hospital,10.4580529,76.1201288,"Community Health Centre, Anthikkad, vilakkumkal mangattukara anjangadi road, Thrissur, Thrissur District, Kerala, 680641, India"
Ammirtha Ayurvedha Treatment Centre,hospital,10.4579521,76.1260356,"Ammirtha Ayurvedha Treatment Centre, Village Office Road, Anthikkad, Thrissur, Thrissur District, Kerala, 680641, India"
Govt ayurveda hospital,hospital,10.1366398,76.2322152,"Govt ayurveda hospital, Kodungallur-Paravur-Ernakulam Highway, Kalikulangara, North Paravur, Paravur, Ernakulam District, Kerala, 683513, India"
Puthenkulam Road-Employees State Insurance(ESI) Hospital High Road Ollur,hospital,10.4656639,76.2463577,"Puthenkulam Road-Employees State Insurance(ESI) Hospital High Road Ollur, High Road, Ollur, Thrissur, Thrissur District, Kerala, 680313, India"
Kaiparambu Government Homoeo Dispensary,hospital,10.5924467,76.1569439,"Kaiparambu Government Homoeo Dispensary, Mundoor-Varadiam-Thrissur Road, Colony, Thrissur, Thrissur District, Kerala, 680541, India"
Life Medical Center,hospital,10.551522,76.3099122,"Life Medical Center, CVG Road, Chirakkakkode, Thrissur, Thrissur District, Kerala, 680654, India"
Sun Diagnostic Centre,hospital,10.5170126,76.2114717,"Sun Diagnostic Centre, Thrissur - Irinjalakkuda Road, Poothole, Thrissur, Thrissur District, Kerala, 680021, India"
Community Health Centre Thriprayar,hospital,10.4140051,76.1219716,"Community Health Centre Thriprayar, Thriprayar-Cherpu Road, Thrissur, Thrissur District, Kerala, 680564, India"
Peringottukara Dialysis Centre,hospital,10.4148836,76.1309241,"Peringottukara Dialysis Centre, Thriprayar-Cherpu-Trissur Road, Pazhuvil, Thrissur, Thrissur District, Kerala, 680564, India"
co operative hospital manlur,hospital,10.4980377,76.1086036,"co operative hospital manlur, Chavakkad-Mullassery-Kanjany -Peringottukara Road, Kanjany, Thrissur, Thrissur District, Kerala, 680617, India"
Gov.Homeo Dispensary- valakkavu,hospital,10.5174478,76.2961583,"Gov.Homeo Dispensary- valakkavu, kannara moorkinikara road, Achankunnu, Thrissur, Thrissur District, Kerala, 680014, India"
co operative hospital manaloor,hospital,10.498059,76.1086113,"co operative hospital manaloor, Chavakkad-Mullassery-Kanjany -Peringottukara Road, Kanjany, Thrissur, Thrissur District, Kerala, 680617, India"
The pentecoastal mission thrissur,hospital,10.5034351,76.2251191,"The pentecoastal mission thrissur, High Road, ST Nagar, Kuriyachira, Thrissur, Thrissur District, Kerala, 680006, India"
N/A,hospital,10.340759,76.1373011,"Ponnani-Chavakkad-Kodungallur Highway, Mathilakam, Kodungallur, Thrissur District, Kerala, 680567, India"
Primary health centre,hospital,10.5125614,76.2830619,"Primary health centre, valakkavu road, Nadathara, Kainoor, Thrissur, Thrissur District, Kerala, 680751, India"
Devikripa Hospital,hospital,10.4299097,76.2160281,"Devikripa Hospital, Kodungallur - Shornur Road, Urakam, Thrissur, Thrissur District, Kerala, 680561, India"
Ayyamppilly Government Hospital,hospital,10.1209511,76.1990261,"Ayyamppilly Government Hospital, Vypin - Pallippuram Road, Kuzhupilly, Kochi, Ernakulam District, Kerala, 682501, India"
Narayana Ayurveda Chikithsalayam,hospital,10.5990754,76.5530319,"Narayana Ayurveda Chikithsalayam, Vadakkenchery-Pollachi Road, Chittilanchery, Alathur, Palakkad District, Kerala, 678704, India"
DDC,hospital,9.9417653,76.3469619,"DDC, Kannankulangara, Mini Byepass Thripunithara, Santhi Nagar, Thrippunithura, Kanayannur, Ernakulam District, Kerala, 682301, India"
"Mudis Garden Hospital, Valparai",hospital,10.2780339,76.9272208,"Mudis Garden Hospital, Valparai, Valparai - Manicka Kurangumudi Road, Valparai, Coimbatore District, Tamil Nadu, 642125, India"
"Pannimedu Hospital, Valparai",hospital,10.325588,76.9555929,"Pannimedu Hospital, Valparai, Pollachi - Valparai Road, Valparai, Coimbatore District, Tamil Nadu, 642127, India"
"Government Hospital, Valparai",hospital,10.329979,76.957798,"Government Hospital, Valparai, Pollachi - Valparai Road, Valparai, Coimbatore District, Tamil Nadu, 642127, India"
c a hospital,hospital,10.1291763,76.34441,"c a hospital, Salem - Kochi - Kanyakumari Highway, Thottakkattukara, Aluva, Ernakulam District, Kerala, 683102, India"
Nature Life Hospital,hospital,9.9544308,76.3276624,"Nature Life Hospital, Ettumanoor - Ernakulam Road, Petta, Thrippunithura, Kanayannur, Ernakulam District, Kerala, 682038, India"
Jeevaniyam,hospital,9.9883939,76.3091576,"Jeevaniyam, Pallath Road, Thammanam, Ernakulam, Kanayannur, Ernakulam District, Kerala, 682032, India"
Jacob Hospital,hospital,10.0495861,76.3173511,"Jacob Hospital, HMT Ring Road, Pathadipalam, Kalamassery, Kanayannur, Ernakulam District, Kerala, 683104, India"
Rishi Ayurveda Hospital,hospital,10.1038825,76.3502904,"Rishi Ayurveda Hospital, Salem - Kochi - Kanyakumari Highway, Thottakkattukara, Aluva, Ernakulam District, Kerala, 683108, India"
"dental college,thankalam",hospital,10.0734498,76.6045268,"dental college,thankalam, Nellikuzhi-Thankalam Bypass, Nellikuzhi, Kothamangalam, Ernakulam District, Kerala, 686691, India"
Mar Baselios College Of Nursing,hospital,10.0727802,76.6017423,"Mar Baselios College Of Nursing, Nellikuzhi-Thankalam Bypass, Nellikuzhi, Kothamangalam, Ernakulam District, Kerala, 686691, India"
Holycross Hospital,hospital,10.02605,76.4487527,"Holycross Hospital, Ernakulam-muvattupuzha road, Pattimattom, Kunnathunad, Ernakulam District, Kerala, 683562, India"
holy family,hospital,10.4489519,76.2782579,"holy family, Kallor road, Amballur, Mukundapuram, Thrissur District, Kerala, 680317, India"
Government Thaluk Hospital,hospital,10.6996374,76.7531681,"Government Thaluk Hospital, Chittur-Nallepilly Road, SC Colony, Manchira, Chittur, Palakkad District, Kerala, 678101, India"
Shalom Hospital,hospital,10.2964041,76.3368034,"Shalom Hospital, Salem - Kochi - Kanyakumari Highway, Chalakudy, Chalakkudy, Thrissur District, Kerala, 680307, India"
Puthenchira Gov Hospital,hospital,10.2749111,76.2516315,"Puthenchira Gov Hospital, Lakshamveed Road, Kodungallur, Mukundapuram, Thrissur District, Kerala, 680682, India"
Primary Health Centre Pindimana,hospital,10.1058976,76.6248141,"Primary Health Centre Pindimana, Vettilappara, Kothamangalam, Ernakulam District, Kerala, 686698, India"
skin and child clinic,hospital,9.9233882,76.3901726,"skin and child clinic, Bypass Road, Chottanikkara, Kanayannur, Ernakulam District, Kerala, 682312, India"
MCS Hospital,hospital,9.9923266,76.5880031,"MCS Hospital, Muvattupuzha - Theni Road, Kizhakkekara, Muvattupuzha, Ernakulam District, Kerala, 686661, India"
primary health centre,hospital,10.0982562,76.2058893,"primary health centre, Vypin - Pallippuram Road, Pazhangad, Edavanakkad, Kochi, Ernakulam District, Kerala, 682502, India"
Kottakal Arya Vaidya Sala,hospital,9.9333953,76.3879899,"Kottakal Arya Vaidya Sala, Bypass Road, Chottanikkara, Kurikad, Kanayannur, Ernakulam District, Kerala, 682312, India"
Veterinary subcentre Anandhapuram,hospital,10.3815157,76.2670031,"Veterinary subcentre Anandhapuram, Chonedath road, Kuttikadan Colony, Mukundapuram, Thrissur District, Kerala, 680305, India"
നെടുംചാലിൽ ട്രസ്റ്റ് ആശുപത്രി,hospital,9.9887939,76.577658,"Nedumchalil Trust Hospital, Muvattupuzha Bridge, Kizhakkekara, Velloorkunnam, Muvattupuzha, Ernakulam District, Kerala, 686673, India"
V.M Hosiptal,hospital,9.9966363,76.5958762,"V.M Hosiptal, V111/104, Muvattupuzha-Kothamangalam Road, Puthuppady, Muvattupuzha, Ernakulam District, Kerala, 686673, India"
jims hospital kodaly,hospital,10.3747949,76.3749304,"jims hospital kodaly, Residential Road, Kodaly, Chalakkudy, Thrissur District, Kerala, 680699, India"
Government Homoeo Hospital Muvattupuzha,hospital,9.9881453,76.5808379,"Government Homoeo Hospital Muvattupuzha, Government Homoeo Hospital, Kochi - Madurai - Dhanushkodi Road, Kizhakkekara, Muvattupuzha, Ernakulam District, Kerala, 686673, India"
N/A,hospital,10.0282991,76.6583301,"Adivad - Kudamunda - Kuthukuzhi Road, Adivad, Kothamangalam, Ernakulam District, Kerala, 686671, India"
Roshan Eye Care,hospital,9.9517542,76.3458182,"Roshan Eye Care, എൻഎച്ച്85, Petta, Thrippunithura, Kanayannur, Ernakulam District, Kerala, 682301, India"
St Mary's Hospital,hospital,10.0076118,76.6802414,"St Mary's Hospital, Adivad - Pothanikkad Road, Pothanikkad, Adivad, Kothamangalam, Ernakulam District, Kerala, 686671, India"
Llh Hospital,hospital,10.0059162,76.7101526,"Llh Hospital, Sabarimala - Kodaikkanal Road, Paingottoor, Kothamangalam, Ernakulam District, Kerala, 686671, India"
"Government Mental Health Center,Thrissur",hospital,10.5203098,76.2007434,"Government Mental Health Center,Thrissur, government mental health center, Nethaji Road, West Fort, Thrissur, Thrissur District, Kerala, 680004, India"
"Thejus Ayurveda, Angamaly",hospital,10.1786444,76.378584,"Thejus Ayurveda, Angamaly, Salem - Kochi - Kanyakumari Highway, Champannur, Angamaly, Aluva, Ernakulam District, Kerala, 683572, India"
KB Hospital,hospital,10.1590075,76.3562037,"KB Hospital, Athani Mekkad Elavoor Road, Athani, Aluva, Ernakulam District, Kerala, 683589, India"
Marian Hospital,hospital,10.161893,76.3692349,"Marian Hospital, Salem - Kochi - Kanyakumari Highway, Kariyadu, Athani, Aluva, Ernakulam District, Kerala, 683589, India"
"Primary Health Centre,Kanjoor",hospital,10.1386844,76.4309998,"Primary Health Centre,Kanjoor, MDR, Puthiyedam, Aluva, Ernakulam District, Kerala, 683595, India"
Primary Health Center Mambra,hospital,10.2373263,76.3540609,"Primary Health Center Mambra, Mambra, Lakshamveedu Colony Mambra, Aluva, Thrissur District, Kerala, 683576, India"
triprayar govt hospital,hospital,10.4136377,76.1220567,"triprayar govt hospital, kizhakenada raja veethi road, Thrissur, Thrissur District, Kerala, 680565, India"
"Government Hospital, Mala",hospital,10.2398736,76.2734571,"Government Hospital, Mala, annamanada -mala pallipuram road, Chalakudy, Chalakkudy, Thrissur District, Kerala, 680732, India"
Community Health Centre Pazhayannur,hospital,10.6938677,76.4252869,"Community Health Centre Pazhayannur, Pazhayannur Road, Porutrhikode Colony, Pazhayanur, Talappilly, Thrissur District, Kerala, 680587, India"
Government Ayurvedic Hospital Manappady,hospital,10.3698314,76.1877214,"Government Ayurvedic Hospital Manappady, kattoor irinjalakuda road, Velli Kulangara, Mukundapuram, Thrissur District, Kerala, 680701, India"
Government Hospital Kattoor,hospital,10.3871241,76.1593335,"Government Hospital Kattoor, MDR, Kattoor, Mukundapuram, Thrissur District, Kerala, 680702, India"
Family Health Centre Poyya,hospital,10.215128,76.2507756,"Family Health Centre Poyya, Manalikad Paramadu Road, Kodungallur, Thrissur District, Kerala, 680733, India"
health centre,hospital,10.4641634,76.0692215,"health centre, vadanapilly beach road, Vadanappally, Chavakkad, Thrissur District, Kerala, 680614, India"
N/A,hospital,10.0136636,76.6261152,"Vazhakkulam-Kothamangalam route, Varappetty, Kothamangalam, Ernakulam District, Kerala, 686691, India"
Government Ayurveda Dispensary,hospital,10.1428674,76.3085503,"Government Ayurveda Dispensary, Alungal Bhagavathy Temple Road, Aluva, Paravur, Ernakulam District, Kerala, 683511, India"
Kerala Institute of Sports Ayurverda & Research Thrissur,hospital,10.5320258,76.2127585,"Kerala Institute of Sports Ayurverda & Research Thrissur, Kallingal Street, Chembukkavu, Thrissur, Thrissur District, Kerala, 680022, India"
R V D A H Thrissur,hospital,10.5312548,76.2121389,"R V D A H Thrissur, Kallingal Street, Chembukkavu, Thrissur, Thrissur District, Kerala, 680022, India"
Govt.Ayurveda Hospital Kodakara,hospital,10.3543007,76.3165084,"Govt.Ayurveda Hospital Kodakara, National Highway Service Road, Kodakara, Chalakkudy, Thrissur District, Kerala, 680689, India"
V.S.V.M Govt.Ayurveda Hospital Valappad,hospital,10.3878358,76.1034529,"V.S.V.M Govt.Ayurveda Hospital Valappad, Kotha Kulam Beach Road, Valapad, Chavakkad, Thrissur District, Kerala, 680567, India"
V.K.S.M.M Government Ayurveda Hospital Santhipuram,hospital,10.2612335,76.1820538,"V.K.S.M.M Government Ayurveda Hospital Santhipuram, Ponnani-Chavakkad-Kodungallur Highway, Vasudeva Vilasam Valavu, S.N. Puram, Kodungallur, Thrissur District, Kerala, 680668, India"
"Govt. Ayurveda Hospital,Azhikode",hospital,10.1996724,76.1687049,"Govt. Ayurveda Hospital,Azhikode, Eriyad-Azhikode road, Eriyad, Kodungallur, Thrissur District, Kerala, 680673, India"
"Govt.Ayurveda Hospital,Annamanada",hospital,10.2392305,76.3281092,"Govt.Ayurveda Hospital,Annamanada, Annamanada Mala Road, Chalakkudy, Thrissur District, Kerala, 680742, India"
Oushadhi ayurveda pharmacy,hospital,10.5737265,76.2175468,"Oushadhi ayurveda pharmacy, Kaithachal Road (Pottore Road), Thrissur, Thrissur District, Kerala, 680010, India"
LRKA Govt. Ayurveda Hospital Villadom,hospital,10.5498205,76.2390266,"LRKA Govt. Ayurveda Hospital Villadom, 0487 2320290, MDR, Thrissur, Thrissur District, Kerala, 680631, India"
Pulloot,hospital,10.2500417,76.2055426,"Pulloot, Govt. Ayurveda Hospital,Pulluttu, Pulluttu P.O Thrissur  Pin-680663, Kodungallur - Shornur Road, Pullut, Kodungallur, Thrissur District, Kerala, 680663, India"
Madakathra,hospital,10.5458344,76.2700687,"Madakathra, Govt Visha Vaidya Hospital Madakkathara, MadakkatharaP.O Thrissur Dt. Pin 680656, Chirakkekode - Vellanikkara Road, Mannuthy, Vellanikkara, Thrissur, Thrissur District, Kerala, 680656, India"
Wadakkancheri,hospital,10.5486195,76.2624668,"Wadakkancheri, Govt. VishaVaidya Hospital Wadakkanchery, Wadakkanchery P.O. Thrissur- 680582, Thanikkudam-Mannuthy Road, Mannuthy, Vellanikkara, Thrissur, Thrissur District, Kerala, 680582, India"
Govt. Ayurveda Dispensary Edavilangu Kodungallur (Via) Thrissur Dt.Pin 680664,hospital,10.2806946,76.260643,"Govt. Ayurveda Dispensary Edavilangu Kodungallur (Via) Thrissur Dt.Pin 680664, mankidi-kundai road, Mukundapuram, Thrissur District, Kerala, 680682, India"
Ashtamichira,hospital,10.2708805,76.2802316,"Ashtamichira, Govt.Ayurveda    Dispensary  Ashtamichira, Chalakudi (Via) Annallur P.O. Thrissurdt. Pin680307, Mala-Chalakudi Road, Ashtamichira, Chalakkudy, Thrissur District, Kerala, 680307, India"
Neem Care Hospital,hospital,10.2415013,76.2625898,"Neem Care Hospital, Kadicheeni Street, Mala, Chalakkudy, Thrissur District, Kerala, 680732, India"
Government Ayurveda Dispensary Desamangalam,hospital,10.5283694,76.1835087,"Government Ayurveda Dispensary Desamangalam, Ayyanthole Civil Line Road, Ayyanthole, Thrissur, Thrissur District, Kerala, 680003, India"
govt.Ayurveda Dispensory,hospital,10.4776971,76.2464941,"govt.Ayurveda Dispensory, Govt. Ayurveda Dispensary Avinissery ,Pallissery P.O. ,  Ollur, Mannuthy-Palakkal Road, Ollur, Thrissur, Thrissur District, Kerala, 680027, India"
Government Ayurveda Dispensary Ashtamichira,hospital,10.2814374,76.2603513,"Government Ayurveda Dispensary Ashtamichira, mankidi-kundai road, Mukundapuram, Thrissur District, Kerala, 680731, India"
"Govt. Ayurveda Dispensary Avanoor ,Thangaloor P.O.,Thrissur Dt., Pin680581",hospital,10.6348222,76.2112817,"Govt. Ayurveda Dispensary Avanoor ,Thangaloor P.O.,Thrissur Dt., Pin680581, Wadakkancherry road, Thiruthiparambu, Talappilly, Thrissur District, Kerala, 680595, India"
"Govt. Ayurveda Dispensary Chalakudy,ChalakudyP.O.,Thrissur Dt.Pin-680307",hospital,10.3068522,76.3378961,"Govt. Ayurveda Dispensary Chalakudy,ChalakudyP.O.,Thrissur Dt.Pin-680307, Trunk Rd, Chalakudy, Chalakkudy, Thrissur District, Kerala, 680307, India"
Government Ayurveda Dispensary Chemmannur,hospital,10.5177808,76.2116297,"Government Ayurveda Dispensary Chemmannur, Thrissur - Koorkancherry Road, Poothole, Thrissur, Thrissur District, Kerala, 680021, India"
Government Ayurveda Dispensary Chengallur,hospital,10.4056556,76.3011254,"Government Ayurveda Dispensary Chengallur, Pudukad Mupliyam Road, Puthukkad, Mukundapuram, Thrissur District, Kerala, 680312, India"
"Govt. Ayurveda Dispensary Cherpu, Thayankulangara,Near Sneha Bhavan Building,Cherpu.P.O, Thrissur Dt.Pin680561",hospital,10.4386734,76.2091861,"Govt. Ayurveda Dispensary Cherpu, Thayankulangara,Near Sneha Bhavan Building,Cherpu.P.O, Thrissur Dt.Pin680561, Thayamkulangara Temple Roa, Cherpu, Thrissur, Thrissur District, Kerala, 680561, India"
Community Health Centre Nenmara,hospital,10.592744,76.6005384,"Community Health Centre Nenmara, Nelliampathy Road, Nenmara, Chittur, Palakkad District, Kerala, 678508, India"
"Govt. Ayurveda Dispensary Eravu, Arimpur P.O. Thrissur Dt.Pin 680620",hospital,10.4884552,76.118575,"Govt. Ayurveda Dispensary Eravu, Arimpur P.O. Thrissur Dt.Pin 680620, Chavakkad-Mullassery-Kanjany -Peringottukara Road, Kanjany, Thrissur, Thrissur District, Kerala, 680617, India"
cimar mom's hospital,hospital,10.0512687,76.2962954,"cimar mom's hospital, Kodungallur-Paravur-Ernakulam Highway, Edappally North, Kalamassery, Kanayannur, Ernakulam District, Kerala, 682034, India"
cimar infertility hospital cheranalloor,hospital,10.0517171,76.2968834,"cimar infertility hospital cheranalloor, Kodungallur-Paravur-Ernakulam Highway, Edappally North, Kalamassery, Kanayannur, Ernakulam District, Kerala, 682034, India"
Government Ayurveda Dispensary Irunilamcode,hospital,10.6856001,76.2167555,"Government Ayurveda Dispensary Irunilamcode, Wadakancherry Varavoor Road, Varavoor, Talappilly, Thrissur District, Kerala, 680585, India"
Bethseda mental health care center,hospital,10.0837011,76.4660951,"Bethseda mental health care center, Perumbavoor Puthencruz road, Asharimukal, Perumbavoor, Kunnathunad, Ernakulam District, Kerala, 683500, India"
Primary Health centres Peruvemba,hospital,10.7028333,76.6853029,"Primary Health centres Peruvemba, Peruvemba road, Peruvamba, Palakkad, Palakkad District, Kerala, 678531, India"
Government Hospital Chengamanad,hospital,10.154961,76.3355533,"Government Hospital Chengamanad, Manjaly Athani Road, Aluva, Ernakulam District, Kerala, 683585, India"
Namasthe ayurvedic treatment,hospital,10.1689749,76.3502474,"Namasthe ayurvedic treatment, MDR, Athani, Aluva, Ernakulam District, Kerala, 683589, India"
mar baselios medical mission hospital,hospital,10.0645781,76.6223951,"mar baselios medical mission hospital, Revenue Tower Road, Kothamangalam, Ernakulam District, Kerala, 686666, India"
Shanthi Bhavan Palliative Hospital,hospital,10.431894,76.224151,"Shanthi Bhavan Palliative Hospital, Urakam-Pudukad road, Thrissur, Thrissur District, Kerala, 680562, India"
Ayurgem Ayurvedic Hospital,hospital,10.5010229,76.2119415,"Ayurgem Ayurvedic Hospital, Kodungallur - Shornur Road, Thrissur, Thrissur District, Kerala, 680007, India"
Makara Ayurveda Hospital,hospital,10.6206702,76.2021122,"Makara Ayurveda Hospital, Mundathicode Road, Talappilly, Thrissur District, Kerala, 680596, India"
Government Ayurveda Dispensary Pazhayannur,hospital,10.6754858,76.4224108,"Government Ayurveda Dispensary Pazhayannur, 317/6, Pazhayanur Elanad Road, Pazhayanur, Talappilly, Thrissur District, Kerala, 680587, India"
Gandhiji Naturopathy Hospital,hospital,10.4928613,76.2152488,"Gandhiji Naturopathy Hospital, Maliyekkal Road, Kuriyachira, Thrissur, Thrissur District, Kerala, 680027, India"
Alappat Dental Hospital,hospital,10.4698197,76.0803677,"Alappat Dental Hospital, beach road, Vadanappally, Thrissur, Thrissur District, Kerala, 680569, India"
Max Care Hospital,hospital,10.6630868,76.2481334,"Max Care Hospital, Kodungallur - Shornur Road, Ottupara, Wadakkancherry, Talappilly, Thrissur District, Kerala, 680582, India"
"Government Ayurveda Dispensary, Avanoor",hospital,10.6131773,76.1801256,"Government Ayurveda Dispensary, Avanoor, 132, Avanoor Mundathikkod Road, Thrissur, Thrissur District, Kerala, 680596, India"
Bone & Joint Hospital,hospital,10.536429,76.215994,"Bone & Joint Hospital, Kovilakam Padam Road, Chembukkavu, Thrissur, Thrissur District, Kerala, 680008, India"
Kottakkal Arya Vaidya Sala,hospital,10.5648004,76.123249,"Kottakkal Arya Vaidya Sala, Road via Chavakkadu to Guruvayoor, Thrissur, Thrissur District, Kerala, 680552, India"
Primary Health Centre 24*7 Arimpur,hospital,10.497812,76.154466,"Primary Health Centre 24*7 Arimpur, Thrissur - Kanjani - Vadanappally Road, Eravu Thaniparambu Colony, Thrissur, Thrissur District, Kerala, 680620, India"
Moyalan's Hospital,hospital,10.3073237,76.3380823,"Moyalan's Hospital, Trunk Rd, Chalakudy, Thrissur, Thrissur District, Kerala, 680307, India"
Holy Angel Hospital,hospital,10.361774,76.410522,"Holy Angel Hospital, church road, Vellikulangara, Chalakkudy, Thrissur District, Kerala, 680684, India"
Bethzada Ayurvedic Hospital,hospital,10.2852799,76.3191752,"Bethzada Ayurvedic Hospital, Thottaveedhi Pocket Road, Chalakudy, Chalakkudy, Thrissur District, Kerala, 680731, India"
N/A,hospital,10.208578,76.265156,"Manalikad Paramadu Road, Kodungallur, Thrissur District, Kerala, 680733, India"
Ayurveda Hospital,hospital,10.2341892,76.3284617,"Ayurveda Hospital, Annamanada Mala Road, Chalakkudy, Thrissur District, Kerala, 680741, India"
Mahalakshmi Multispeciality Dental Hospital,hospital,10.232291,76.195861,"Mahalakshmi Multispeciality Dental Hospital, Ponnani-Chavakkad-Kodungallur Highway, Chandapura, Kodungallur, Thrissur District, Kerala, 680668, India"
St. Vincent Diabetes Hospital & Research Centre,hospital,10.3393863,76.219457,"St. Vincent Diabetes Hospital & Research Centre, unknown road, Irinjalakuda, Mukundapuram, Thrissur District, Kerala, 680121, India"
St. Joseph's Hospital,hospital,10.206019,76.319885,"St. Joseph's Hospital, Melanthuruth colony road, Valiyaparambu, Chalakkudy, Ernakulam District, Kerala, 683579, India"
Kuzhur Panchayat Hospital,hospital,10.204512,76.278669,"Kuzhur Panchayat Hospital, Puthirithi road Kuzhur, Chalakkudy, Thrissur District, Kerala, 680734, India"
Hospital,hospital,10.240304,76.266917,"Hospital, annamanada -mala pallipuram road, Mala, Chalakkudy, Thrissur District, Kerala, 680732, India"
Pullur Mission Hospital,hospital,10.3429971,76.2352655,"Pullur Mission Hospital, Pulloor-Oorakam Road, Pulloor, Mukundapuram, Thrissur District, Kerala, 680121, India"
K A Speciality Hospital,hospital,10.3911879,76.2212993,"K A Speciality Hospital, Kodungallur - Shornur Road, Irinjalakuda, Mukundapuram, Thrissur District, Kerala, 680712, India"
Okay Mission Hospital,hospital,10.2302845,76.1887487,"Okay Mission Hospital, Chandappura-Eriyad Road, Chandapura, Kodungallur, Thrissur, Thrissur District, Kerala, 680668, India"
St. Joseph Hospital,hospital,10.4345449,76.3550907,"St. Joseph Hospital, Chimminy Dam Road, Pulikkanny, Chalakkudy, Thrissur District, Kerala, 680303, India"
Mar Thoma Hospital,hospital,10.1908537,76.1781232,"Mar Thoma Hospital, Eriyad-Azhikode road, Eriyad, Kodungallur, Thrissur District, Kerala, 680666, India"
Medigreen Hospital,hospital,10.2870504,76.2149499,"Medigreen Hospital, Irinjalakuda-Kodungallur Road, Konathukunnu, Thrissur, Thrissur District, Kerala, 680682, India"
Merly Jeevamrith Ayurveda Hospital,hospital,10.307309,76.33214,"Merly Jeevamrith Ayurveda Hospital, Sha Road, Thachudaparambu, Chalakkudy, Thrissur District, Kerala, 680307, India"
MIT Mission Hospital,hospital,10.2329009,76.1941745,"MIT Mission Hospital, Service Road, Chandapura, Kodungallur, Thrissur District, Kerala, 680664, India"
Gurudharmam Mission Hospital,hospital,10.239203,76.264598,"Gurudharmam Mission Hospital, Mala - Kodungallur Road, Moonnumuri Junction, Mala, Chalakkudy, Thrissur District, Kerala, 680732, India"
Government Ayurvedic Hospital Ottappalam,hospital,10.7728772,76.3581782,"Government Ayurvedic Hospital Ottappalam, Ottappalam-Kulapully-Shornur Road, Manav Nagar, Manisseri, Ottappalam, Palakkad District, Kerala, 679104, India"
Homoeo Hospital,hospital,10.6401328,76.4900427,"Homoeo Hospital, thennilapuram gramam, Alathur, Palakkad District, Kerala, 678682, India"
St.Francis Shanti Hospital,hospital,10.6906321,76.7172383,"St.Francis Shanti Hospital, Tattamangalam-Chittur Road, Chittur, Palakkad District, Kerala, 678102, India"
Trinity Eye Hospital,hospital,10.6467584,76.543439,"Trinity Eye Hospital, Pazhayannur-Alathur Road, Ambedkar Colony, Puducode, edathil colony, Alathur, Palakkad District, Kerala, 678541, India"
Aabind Hospital,hospital,10.6127845,76.6986127,"Aabind Hospital, Vadakkenchery - Pollachi Road, Kollengode, Chittur, Palakkad District, Kerala, 678506, India"
Ponnan Pushari Memorial Hospital,hospital,10.6590787,76.4683725,"Ponnan Pushari Memorial Hospital, Local Road, Kulakkad Colony, Tarur, Alathur, Palakkad District, Kerala, 678548, India"
Natural Jothi Ayurveda Hospital,hospital,10.646966,76.566367,"Natural Jothi Ayurveda Hospital, Alathur-Kollengode Road, Kunissery, Alathur, Palakkad District, Kerala, 678546, India"
Bajm Hospital,hospital,10.7244272,76.6026057,"Bajm Hospital, kuzhalmannam-kuthanur road, Kuzhalmannam, Alathur, Palakkad District, Kerala, 678702, India"
Rishi Hospital,hospital,10.778446,76.65287,"Rishi Hospital, Priyadarshini Road, Tharekkad, Palakkad, Palakkad District, Kerala, 678001, India"
Government Ayurveda Hospital,hospital,10.592635,76.469866,"Government Ayurveda Hospital, Salem - Kochi - Kanyakumari Highway, Panniyankara, Palakkad, Palakkad District, Kerala, 678683, India"
Serene Ninan's Hospital,hospital,10.7752837,76.6554649,"Serene Ninan's Hospital, Priyadarshini Road, Tharekkad, Palakkad, Palakkad District, Kerala, 678001, India"
Alathur Maternity & Children's Hospital,hospital,10.6465783,76.5517042,"Alathur Maternity & Children's Hospital, Salem - Kochi - Kanyakumari Road, edathil colony, Alathur, Palakkad, Palakkad District, Kerala, 678541, India"
Kandath Mohandas Memorial Health Centre,hospital,10.648327,76.563964,"Kandath Mohandas Memorial Health Centre, Salem - Kochi - Kanyakumari Highway, Erimayur, Alathur, Palakkad District, Kerala, 678546, India"
Family Health Centre Kollengode,hospital,10.6147738,76.696926,"Family Health Centre Kollengode, Kollengode-Pudhunagaram Road, Kollengode, Chittur, Palakkad District, Kerala, 678506, India"
Rural Medical Mission Hospital,hospital,10.1254188,76.3324083,"Rural Medical Mission Hospital, VSCB Road, Paravur, Ernakulam District, Kerala, 683102, India"
Ayurguham Ayurvendha Hospital,hospital,10.0806662,76.6193506,"Ayurguham Ayurvendha Hospital, Thrikkariyoor-Kothamangalam Block Road, Kothamangalam, Ernakulam District, Kerala, 686692, India"
Janatha Hospital,hospital,10.10672,76.350308,"Janatha Hospital, Salem - Kochi - Kanyakumari Highway, Thottakkattukara, Aluva, Ernakulam District, Kerala, 683101, India"
Kalarickal Ayurveda Hospital,hospital,10.0685904,76.6212908,"Kalarickal Ayurveda Hospital, Kothamangalam Bypass Road, Kothamangalam, Ernakulam District, Kerala, 686691, India"
Government Homeo Hospital,hospital,10.0029555,76.4582398,"Government Homeo Hospital, kolenchery road passing through kadayiruppu, Kariyattukunnu colony, Kadayiruppu, Kunnathunad, Ernakulam District, Kerala, 682311, India"
Nangelil Hospital,hospital,10.115837,76.480546,"Nangelil Hospital, MDR, Perumbavoor, Kunnathunad, Ernakulam District, Kerala, 683542, India"
NIMS Hospital,hospital,10.0758077,76.5925286,"NIMS Hospital, MDR, Nellikuzhi, Kothamangalam, Ernakulam District, Kerala, 686691, India"
Life Line Hospital,hospital,10.0003954,76.709916,"Life Line Hospital, Sabarimala - Kodaikkanal Road, Paingottoor, Kothamangalam, Ernakulam District, Kerala, 686671, India"
Ideal Mind Care Hospital,hospital,10.0888995,76.4682171,"Ideal Mind Care Hospital, Perumbavoor Puthencruz road, Asharimukal, Perumbavoor, Kunnathunad, Ernakulam District, Kerala, 683556, India"
Payattuthara Hospital,hospital,10.0172719,76.4283668,"Payattuthara Hospital, Achappankavala - Pancode Road, Parakode, Kunnathunad, Ernakulam District, Kerala, 683565, India"
Ayurgrace Ayurveda Hospital,hospital,10.110355,76.480951,"Ayurgrace Ayurveda Hospital, MC Road, Pathipalam, Perumbavoor, Kunnathunad, Ernakulam District, Kerala, 683542, India"
Tvj Eye Hospital,hospital,10.068056,76.613934,"Tvj Eye Hospital, Aluva - Munnar Road, Kothamangalam, Ernakulam District, Kerala, 686691, India"
Vempilly Ayurveda Hospital,hospital,9.9449021,76.6955656,"Vempilly Ayurveda Hospital, Kottarathilpadi Road, CHOZHUMKUDY COLONY, Kumaramangalam, Muvattupuzha, Ernakulam District, Kerala, 686668, India"
Life Care Hospital,hospital,10.0280343,76.590152,"Life Care Hospital, Pallipady Canal Road, Muvattupuzha, Ernakulam District, Kerala, 686673, India"
Samwarthika Ayurveda Hospital,hospital,9.9707114,76.5857635,"Samwarthika Ayurveda Hospital, pallikavu road, Kizhakkekara, Muvattupuzha, Ernakulam District, Kerala, 686661, India"
Nirmala Medical Mission Hospital,hospital,10.0037817,76.3976039,"Nirmala Medical Mission Hospital, Pallimubgal Road, Ernakulam, Kunnathunad, Ernakulam District, Kerala, 682303, India"
Badriya Holistic Hospital,hospital,10.1123147,76.4611705,"Badriya Holistic Hospital, Aluva - Munnar Road, Perumbavoor, Kunnathunad, Ernakulam District, Kerala, 683547, India"
Kottakkal Hospital,hospital,10.0638222,76.6208543,"Kottakkal Hospital, Aluva - Munnar Road, Kothamangalam, Ernakulam District, Kerala, 686666, India"
Sanjeevanam Ayurveda Hospital,hospital,10.027905,76.388979,"Sanjeevanam Ayurveda Hospital, Ernakulam - Thekkady Road, Manakkakadavu, Kunnathunad, Ernakulam District, Kerala, 683565, India"
Lotus Eye Hospital,hospital,9.9674326,76.3012127,"Lotus Eye Hospital, Sahodaran Ayyappan Road, Elamkulam, Ernakulam, Kanayannur, Ernakulam District, Kerala, 682020, India"
Vathakat Orthopaedic Hospital,hospital,9.986819,76.285434,"Vathakat Orthopaedic Hospital, TA Beerankunju Road, Pulleppady, Ernakulam North, Ernakulam, Kanayannur, Ernakulam District, Kerala, 682018, India"
B & B Memorial Hospital,hospital,10.033897,76.3294623,"B & B Memorial Hospital, Marottichodu - Thoppil Road, Thrikkakkara, Ernakulam, Kanayannur, Ernakulam District, Kerala, 682021, India"
Evershine Hospital,hospital,10.0196125,76.3046442,"Evershine Hospital, Manimala Road, Sahrudaya Nagar, Edappally, Ernakulam, Kanayannur, Ernakulam District, Kerala, 682024, India"
"Urban Primary Health Centre, Chalikkavattom",hospital,9.9824178,76.3241707,"Urban Primary Health Centre, Chalikkavattom, Mahilasamajam Nursery Road, Thammanam, Ernakulam, Kanayannur, Ernakulam District, Kerala, 682028, India"
Vypeen Hospital,hospital,9.9997548,76.2350221,"Vypeen Hospital, Vypin - Pallippuram Road, Puthuvype, Ernakulam, Kochi, Ernakulam District, Kerala, 682508, India"
Dr. Hassan Ayurveda Brain and Spine Super Speciality Hospital,hospital,9.978757,76.286691,"Dr. Hassan Ayurveda Brain and Spine Super Speciality Hospital, Rajaji Road, Pulleppady, Shenoys, Ernakulam, Kanayannur, Ernakulam District, Kerala, 682035, India"
Alife Ayurvedam,hospital,10.0146072,76.2933848,"Alife Ayurvedam, Deshabhimani Road, Elamakkara, Ernakulam, Kanayannur, Ernakulam District, Kerala, 682026, India"
Futureace Hospital,hospital,10.0320122,76.304213,"Futureace Hospital, Edapally Overbridge, Railway Nagar, Koonamthai, Ernakulam, Kanayannur, Ernakulam District, Kerala, 682024, India"
Appolo,hospital,10.0632087,76.3187175,"Appolo, Karipai Road, Ernakulam, Kanayannur, Ernakulam District, Kerala, 683104, India"
Ahalia Foundation Eye Hospital,hospital,9.9932055,76.3146743,"Ahalia Foundation Eye Hospital, Salem - Kochi - Kanyakumari Road, Pallinada, Ernakulam, Kanayannur, Ernakulam District, Kerala, 682025, India"
Focus Eye Hospital,hospital,9.9689594,76.2932547,"Focus Eye Hospital, Hindustan Petroleum Road, Gandhi Nagar, Ernakulam, Kanayannur, Ernakulam District, Kerala, 682016, India"
Navabharath Medical Hospital,hospital,10.171629,76.178222,"Navabharath Medical Hospital, മൂത്തകുന്നം - മാല്യങ്കര - മുനമ്പം റോഡ്, Pallipuram, Kochi, Ernakulam District, Kerala, 683515, India"
Santhigiri Ayurveda & Siddha Hospital,hospital,9.9730963,76.2860427,"Santhigiri Ayurveda & Siddha Hospital, Chittoor Road, Pulleppady, Shenoys, Ernakulam, Kanayannur, Ernakulam District, Kerala, 682018, India"
Metro Mind - Psychiatric Hospital,hospital,10.054538,76.319607,"Metro Mind - Psychiatric Hospital, Salys Road, Ernakulam, Kanayannur, Ernakulam District, Kerala, 683104, India"
Medall Healthcare,hospital,9.9651653,76.3156016,"Medall Healthcare, Major Road, Vyttila, Ernakulam, Kanayannur, Ernakulam District, Kerala, 682019, India"
Arc Fertility Hospitals,hospital,10.0090884,76.3034525,"Arc Fertility Hospitals, Pottakuzhi-Mamangalam Road, Sonia Nagar, Ernakulam, Kanayannur, Ernakulam District, Kerala, 682025, India"
Government Homeo dispensary Puthenvelikkara,hospital,10.1730039,76.2755433,"Government Homeo dispensary Puthenvelikkara, GHD Puthenvelikkara, MDR, Kanakkankadavu, Paravur, Ernakulam District, Kerala, 683594, India"
Sparsam Hospital,hospital,10.2000693,76.5040551,"Sparsam Hospital, Kadappara, Malayattoor Kadappara Road, Chammani, Malayattoor, Aluva, Ernakulam District, Kerala, 683587, India"
Government Homeo Dispensary Vandazhi,hospital,10.5936023,76.5220931,"Government Homeo Dispensary Vandazhi, Vadakkenchery-Pollachi Road, Mudappallur, Alathur, Palakkad District, Kerala, 678705, India"
N/A,hospital,10.6097543,76.1567812,"Arambilly Road, Colony, Thrissur, Thrissur District, Kerala, 680549, India"
Government Veterinary Dispensary,hospital,10.6442082,76.1929819,"Government Veterinary Dispensary, Wadakkancherry road, Thrissur, Talappilly, Thrissur District, Kerala, 680601, India"
Njarakkal Govt. Homoeo Dispensary,hospital,10.0438538,76.217612,"Njarakkal Govt. Homoeo Dispensary, Vypin - Pallippuram Road, Thekkinezhath, Njarackal, Kochi, Ernakulam District, Kerala, 682505, India"
Govt Homoeo Dispensary Okkal,hospital,10.1549387,76.4438004,"Govt Homoeo Dispensary Okkal, 16/50, Koonathan Road, Kunnathunad, Ernakulam District, Kerala, 683550, India"
Government Homoeo Dispensary Kunnukara,hospital,10.1561093,76.2948487,"Government Homoeo Dispensary Kunnukara, Kunnukara P O, Manjaly Athani Road, Chalakka, Paravur, Ernakulam District, Kerala, 683578, India"
GOVERNMENT HOMOEO DISPENSARY CHITTATTUKARA,hospital,10.1507992,76.2106834,"GOVERNMENT HOMOEO DISPENSARY CHITTATTUKARA, Government homoeo dispensary chittattukara.sahitya poshini building.vadakkekara p.o, Kodungallur-Paravur-Ernakulam Highway, Aalummaav, North Paravur, Paravur, Ernakulam District, Kerala, 683522, India"
N/A,hospital,10.2835557,76.2137691,"Irinjalakuda-Kodungallur Road, Konathukunnu, Mukundapuram, Thrissur District, Kerala, 680123, India"
Government Homoeo dispensary Nedumbassery,hospital,10.1622239,76.3689623,"Government Homoeo dispensary Nedumbassery, kariyad junction, Salem - Kochi - Kanyakumari Highway, Kariyadu, Athani, Aluva, Ernakulam District, Kerala, 683589, India"
veterinary hospital cherpu,hospital,10.4449655,76.2117672,"veterinary hospital cherpu, veterinary hospittal cherpu, Gramodharanam Road, Cherpu, Thrissur, Thrissur District, Kerala, 680561, India"
veterinary hospital ollur,hospital,10.4891421,76.2408594,"veterinary hospital ollur, MDR, Cheerachi, Thrissur, Thrissur District, Kerala, 680306, India"
veterinary sub centre thaikattussery,hospital,10.4564782,76.2401889,"veterinary sub centre thaikattussery, veterinary subcentre thaikattussery, Thaikkattussery Road, Thrissur, Thrissur District, Kerala, 680306, India"
Government Homoeo dispensary Nedumbassery,hospital,10.1621967,76.3689857,"Government Homoeo dispensary Nedumbassery, kariyad junction, Salem - Kochi - Kanyakumari Highway, Kariyadu, Athani, Aluva, Ernakulam District, Kerala, 683589, India"
Veterinary Dispensary,hospital,10.6131471,76.1814563,"Veterinary Dispensary, 76/2, Avanoor Mundathikkod Road, Edakkulam, Thrissur, Thrissur District, Kerala, 680596, India"
AYUSH PHC NENMANIKKARA HOMOEO,hospital,10.4223059,76.2507609,"AYUSH PHC NENMANIKKARA HOMOEO, Urakam-Pudukad Road, Puthukkad, Mukundapuram, Thrissur District, Kerala, 680131, India"
Veterinary Dispensary,hospital,10.2096823,76.2649222,"Veterinary Dispensary, Veterinary Dispensary, Poopathy 680733, Manalikad Paramadu Road, Kodungallur, Thrissur District, Kerala, 680733, India"
govt homoeo dispensary vengola,hospital,10.0953279,76.449084,"govt homoeo dispensary vengola, Aluva - Munnar Road, Perumbavoor, Kunnathunad, Ernakulam District, Kerala, 683547, India"
DISTRICT VETERINARY CENTRE THRISSUR,hospital,10.520455,76.2415582,"DISTRICT VETERINARY CENTRE THRISSUR KERALA, DISTRICT VETEINARY COMPLEX, Paravattani - Nellikunnu Road, Chelakkottukara, Thrissur, Thrissur District, Kerala, 680005, India"
vallachira vetinary hopital,hospital,10.4438876,76.2329579,"vallachira vetinary hopital, poochinnipadam-vallachira road, Thrissur, Thrissur District, Kerala, 680562, India"
APHC(NHM)HOMOEO PUDUKKAD,hospital,10.4252911,76.2678905,"APHC(NHM)HOMOEO PUDUKKAD, Salem - Kochi - Kanyakumari Highway, Puthukkad, Mukundapuram, Thrissur District, Kerala, 680301, India"
Annamanada Ayush Phc (Homoeo),hospital,10.2383046,76.3267975,"Annamanada Ayush Phc (Homoeo), Annamanada Mala Road, Chalakkudy, Thrissur District, Kerala, 680741, India"
AYUSH PHC HOMOEO KODASSERY,hospital,10.3431333,76.3945927,"AYUSH PHC HOMOEO KODASSERY, Near Panchayath, Chalakudy Vellikulangara Road, Elanjipra, Chalakkudy, Thrissur District, Kerala, 680721, India"
"AYUSH PHC HOMOEOPATHY CHELAKKARA, Chelakkara P.O., Thrissur 680586",hospital,10.6946084,76.3346826,"AYUSH PHC HOMOEOPATHY CHELAKKARA, Chelakkara P.O., Thrissur 680586, AYUSH PHC HOMOEOPATHY CHELAKKARA, Inside Panchayath Office Complex, Chelakkara P.O.., pazhayannur Road, Chelakkara, Talappilly, Thrissur District, Kerala, 680586, India"
VETERINARY DISPENSARY CHAIPPANKUZHY,hospital,10.3251557,76.4423429,"Chalakkudy, Thrissur District, Kerala, 680724, India"
ICDP SUBCENTER KUTTICHIRA,hospital,10.33276,76.4244035,"ICDP SUBCENTER KUTTICHIRA, Quarry Road, Chalakkudy, Thrissur District, Kerala, 680724, India"
Veterinary hospital Avinissery,hospital,10.4697358,76.2248149,"Veterinary hospital Avinissery, avinissery, Mannuthy-Palakkal Road, Ollur, Thrissur, Thrissur District, Kerala, 680313, India"
AYUSH PHC HOMOEO PERINJANAM,hospital,10.305805,76.1594782,"AYUSH PHC HOMOEO PERINJANAM, Panchayat Road, Chakkarapadam Bridge Road, Kodungallur, Thrissur District, Kerala, 680686, India"
GAD Kandassamkadavu,hospital,10.4747673,76.1017343,"GAD Kandassamkadavu, Sree Narayana Guru Road, Kandassankadavu, Manaloor, Thrissur, Thrissur District, Kerala, 680613, India"
Veterinary Dispensary Perinjanam,hospital,10.3137728,76.142272,"Veterinary Dispensary Perinjanam, Pancharavalavu, Emmad Road, Moonupeedika, Kodungallur, Thrissur District, Kerala, 680686, India"
veterinary sub centre manalur,hospital,10.4745548,76.1015899,"veterinary sub centre manalur, manalur, Sree Narayana Guru Road, Kandassankadavu, Manaloor, Thrissur, Thrissur District, Kerala, 680613, India"
veterinary dispensary muttithadi,hospital,10.4578908,76.3286859,"veterinary dispensary muttithadi, muttithadi, MDR, Mukundapuram, Thrissur District, Kerala, 680317, India"
Government Ayurveda Dispensary,hospital,10.269823,76.3113372,"Government Ayurveda Dispensary, 477/II, Kadukutty Muringoor Road, Annanad, Chalakkudy, Thrissur District, Kerala, 680309, India"
Veterinary Dispensary Ashtamichira,hospital,10.2754456,76.2774896,"Veterinary Dispensary Ashtamichira, Ashtamichira, Kodakara - Kodungallur Road, Ashtamichira, Chalakkudy, Thrissur District, Kerala, 680731, India"
veterinary sub centre pazhookkara,hospital,10.2798704,76.2928823,"veterinary sub centre pazhookkara, Pazhookkara, Mala-Chalakudi Road, Ashtamichira, Chalakkudy, Thrissur District, Kerala, 680731, India"
Veterinary Sub Centre Poyya,hospital,10.2156894,76.2384945,"Veterinary Sub Centre Poyya, Poyya, Mala - Kodungallur Road, Mala, Kodungallur, Thrissur District, Kerala, 680733, India"
Veterinary Sub Centre Annanad,hospital,10.2754102,76.3234286,"Veterinary Sub Centre Annanad, Annanad, Kadukutty Muringoor Road, Annanad, Chalakkudy, Thrissur District, Kerala, 680309, India"
"GOVT AYURVEDA DISPENSARY,AYYANTHOLE",hospital,10.5145361,76.1822709,"GOVT AYURVEDA DISPENSARY,AYYANTHOLE, Thrissur - Kanjani - Vadanappally Road, West Fort, Thrissur, Thrissur District, Kerala, 680012, India"
govt homoeo dispensary  arimpur,hospital,10.4975527,76.1561817,"govt homoeo dispensary  arimpur, govt homoeo dispensary, Thrissur - Kanjani - Vadanappally Road, Eravu Thaniparambu Colony, Arimbur, Thrissur, Thrissur District, Kerala, 680620, India"
Dr George's Homoeopathy,hospital,10.2112541,76.3864411,"Dr George's Homoeopathy, Karayamparambu, Angamaly Ezhattumukham Road, Elavoor Kavala, Karayamparambu, Aluva, Ernakulam District, Kerala, 683576, India"
GOVT HOMOEO DISPENSARY AYYANTHOLE,hospital,10.5148036,76.1822653,"GOVT HOMOEO DISPENSARY AYYANTHOLE, 49/1224/3, Ambadi Kulam Road, Thrissur, Thrissur District, Kerala, 680012, India"
Muriyad Government Homoeo Dispensary,hospital,10.3674551,76.2641067,"Muriyad Government Homoeo Dispensary, Muriyad,Mukundapuram, Vallakkunnu-Nellayi Road, Kunnathara Colony, Anandapuram, Mukundapuram, Thrissur District, Kerala, 680683, India"
AYUSH NHM Homoeo Dispensary,hospital,10.2907764,76.5130446,"AYUSH NHM Homoeo Dispensary, Panchayath office Complex, Aroormuzhy road, Vettilappara, Chalakkudy, Thrissur District, Kerala, India"
Govt.Ayurveda Dispensary Avinissery,hospital,10.4700513,76.2215205,"Govt.Ayurveda Dispensary Avinissery, Pallissery.P.O, Mannuthy-Palakkal Road, Ollur, Thrissur, Thrissur District, Kerala, 680027, India"
NHM AYURVEDA DISPENSARY,hospital,10.3584894,76.1268567,"NHM AYURVEDA DISPENSARY, Ponnani-Chavakkad-Kodungallur Highway, Mathilakam, Kodungallur, Thrissur District, Kerala, 680687, India"
"Ayush NHM PHC Homoeopathy, Mundathikode",hospital,10.6440936,76.2057791,"Ayush NHM PHC Homoeopathy, Mundathikode, Wadakkancherry road, Thiruthiparambu, Talappilly, Thrissur District, Kerala, 680601, India"
"Government Homeo Dispensary, Thiruvilwamala",hospital,10.7356262,76.4289716,"Government Homeo Dispensary, Thiruvilwamala, 582/B, Mini Civil Station Road, Thelakkattukunn Colony, Thiruvilwamala, Talappilly, Thrissur District, Kerala, 680588, India"
GOVT AYURVEDA DISPENSARY VETTILAPPARA,hospital,10.2908962,76.5085739,"GOVT AYURVEDA DISPENSARY VETTILAPPARA, GAD VETTILAPPARA, Aroormuzhy road, Athirappilly, Chalakkudy, Thrissur District, Kerala, 680721, India"
GAD Ollukkara,hospital,10.5279704,76.2547495,"GAD Ollukkara, Thrissur - Mannuthy Road, Mission Quarters, Chelakkottukara, Thrissur, Thrissur District, Kerala, 680655, India"
Govt Ayurveda DIspensary Venkitangu,hospital,10.5191684,76.0911303,"Govt Ayurveda DIspensary Venkitangu, Chavakkad-Mulassery-Kanjany-Peringottukara Road, Puvathoor, Chavakkad, Thrissur District, Kerala, 680510, India"
N/A,hospital,10.7370948,76.3132156,"Cheruthuruthy-Panjal-Chelakara Road, Talappilly, Thrissur District, Kerala, 680591, India"
Veterinary Dispansary Pulacode,hospital,10.6496453,76.3568992,"Veterinary Dispansary Pulacode, Chelakkara Elenad Road, Chelakkara, Talappilly, Thrissur District, Kerala, 680586, India"
ICDP Sub center Kalappara,hospital,10.6359426,76.3621474,"ICDP Sub center Kalappara, Chelakkara Elenad Road, Chelakkara, Talappilly, Thrissur District, Kerala, 680586, India"
N/A,hospital,10.6135058,76.1801316,"Avanoor Mundathikkod Road, Edakkulam, Thrissur, Thrissur District, Kerala, 680596, India"
"Government Ayurveda Dispensary, Alagappanagar",hospital,10.4345756,76.2961886,"Government Ayurveda Dispensary, Alagappanagar, XIII / 184, Medamkullangara Temple road, Puthukkad, Mukundapuram, Thrissur District, Kerala, 680302, India"
GOVT AYURVEDA DISPENSARY PARIYARAM,hospital,10.3195967,76.3706856,"GOVT AYURVEDA DISPENSARY PARIYARAM, GAD PARIYARAM, Pariyaram Grama Panchayath Road, Elanjipra, Chalakkudy, Thrissur District, Kerala, 680721, India"
"Government Ayurveda Dispensary, Thiruvilwamala",hospital,10.7356194,76.4290669,"Government Ayurveda Dispensary, Thiruvilwamala, Temple Road, Thelakkattukunn Colony, Thiruvilwamala, Talappilly, Thrissur District, Kerala, 680588, India"
Government Ayurveda Dispensary Parappukara,hospital,10.4048211,76.2788572,"Government Ayurveda Dispensary Parappukara, Salem - Kochi - Kanyakumari Highway, Nandikkara, Mukundapuram, Thrissur District, Kerala, 680301, India"
AYUSH Primary Health Centre Homeopathy Kadukutty Vynthala Homoeo Dispensery,hospital,10.2591342,76.3030196,"AYUSH Primary Health Centre Homeopathy Kadukutty Vynthala Homoeo Dispensery, vynthala annamanada road, Sampaloor, Chalakkudy, Thrissur District, Kerala, 680731, India"
"Government Homoeo Dispensary, Venkitangu",hospital,10.5192476,76.0909888,"Government Homoeo Dispensary, Venkitangu, Chavakkad-Mulassery-Kanjany-Peringottukara Road, Puvathoor, Chavakkad, Thrissur District, Kerala, 680509, India"
"Govt. Ayurveda Dispensary, Kodassery, Pulinkara",hospital,10.3356648,76.4373817,"Govt. Ayurveda Dispensary, Kodassery, Pulinkara, Govt. Ayurveda Dispensary, Kodassery,, Quarry Road, Chalakkudy, Thrissur District, Kerala, 680724, India"
government ayuveda hospital puthenchira,hospital,10.2810386,76.2606172,"government ayuveda hospital puthenchira, mankidi-kundai road, Mukundapuram, Thrissur District, Kerala, 680731, India"
"Government Ayurveda Dispensary, Tholur",hospital,10.5673944,76.1247296,"Government Ayurveda Dispensary, Tholur, 7/684, Kaiparambu - Parappur Road, Parappur, Thrissur, Thrissur District, Kerala, 680552, India"
Maria Hospital,hospital,10.1126055,76.5160764,"Maria Hospital, Aluva - Munnar Road, Kuruppampady, Kunnathunad, Ernakulam District, Kerala, 683545, India"
Neethi Medical Store,hospital,10.4688554,76.0820249,"Neethi Medical Store, Thrissur - Kanjani - Vadanappally Road state high way, Vadanappally, Chavakkad, Thrissur District, Kerala, 680614, India"
N/A,hospital,10.7609959,76.5429713,"Kuzhalmannam-Peringottukurussi Road, Kalluparambu Colony, Kottayi, Alathur, Palakkad District, Kerala, 678572, India"
Dental clinic,hospital,10.6434154,76.2048179,"Dental clinic, Wadakkancherry road, Thiruthiparambu, Talappilly, Thrissur District, Kerala, 680595, India"
samuels clinic,hospital,10.5747416,76.1626632,"samuels clinic, Thrissur-Kuttipuram road, Laksham Veedu, Peramangalam, Thrissur, Thrissur District, Kerala, 680555, India"
KP Prabhakaran memorial government hospital anthikkad,hospital,10.4581257,76.1162883,"KP Prabhakaran memorial government hospital anthikkad, vilakkumkal mangattukara anjangadi road, Anthikkad, Thrissur, Thrissur District, Kerala, 680641, India"
"Ashwamalika Hospital, kanjany",hospital,10.4784905,76.1149246,"Ashwamalika Hospital, kanjany, Chavakkad-Mullassery-Kanjany -Peringottukara Road, Kanjany, Thrissur, Thrissur District, Kerala, 680617, India"
Jubilee Ayurveda Misson Hospital,hospital,10.5592643,76.2341114,"Jubilee Ayurveda Misson Hospital, Viyyur - Thanikkudam Road, Thanikkudam, Thrissur, Thrissur District, Kerala, 680631, India"
"hospital,doctors",hospital,10.6086419,76.1388542,"hospital,doctors, Kaiparambu-Thalakottukara Road, Kaiparambu Colony, Thrissur, Thrissur District, Kerala, 680546, India"
N/A,hospital,10.609384,76.1393075,"Kaiparambu-Thalakottukara Road, Kaiparambu Colony, Thrissur, Thrissur District, Kerala, 680546, India"
Homeo dispensery,hospital,10.5493041,76.1639148,"Homeo dispensery, Adat Road, Puzhakkal, Muthuvara, Thrissur, Thrissur District, Kerala, 680551, India"
chambakkara primary health centre,hospital,9.9542828,76.3289044,"chambakkara primary health centre, Ettumanoor - Ernakulam Road, Petta, Ernakulam, Kanayannur, Ernakulam District, Kerala, 682308, India"
KONAY,hospital,10.3086936,76.1941959,"KONAY, Aripalam-Edakkulam Road, Irinjalakuda, Mukundapuram, Thrissur District, Kerala, 680688, India"
Ayur Vaidyanath,hospital,10.0238379,76.3412942,"Ayur Vaidyanath, Plot 75, Palarivattom - Kakkanad Road, Kakkanad, Kochi, Kanayannur, Ernakulam District, Kerala, 682030, India"
Dr. Babu Krishnakumar Clinic,hospital,10.490837,76.2769246,"Dr. Babu Krishnakumar Clinic, Thrissur Mannamangalam Road, Kainoor, Thrissur, Thrissur District, Kerala, 680014, India"
Homeopathic Hospital,hospital,9.9690891,76.4232657,"Homeopathic Hospital, Fish Market Road, Puthencruz, Kunnathunad, Ernakulam District, Kerala, 682308, India"
clinic,hospital,9.9827432,76.606085,"clinic, Muvattupuzha - Theni Road, Randar, Kizhakkekara, Muvattupuzha, Ernakulam District, Kerala, 686673, India"
mgm,hospital,10.0283141,76.6584319,"mgm, Adivad - Kudamunda - Kuthukuzhi Road, Adivad, Kothamangalam, Ernakulam District, Kerala, 686671, India"
Dental clinic,hospital,10.273721,76.245487,"Dental clinic, Vyaparabhavan road, Puthenchira, Mukundapuram, Thrissur District, Kerala, 680682, India"
Government Homeo Dispensary,hospital,10.3719673,76.1201305,"Government Homeo Dispensary, Road to Government Homeo Dispensary, Edamuttam, Chavakkad, Thrissur District, Kerala, 680568, India"
Devamatha Hospital,hospital,10.2614496,76.3523519,"Devamatha Hospital, Devamatha Ave Road, Koratty, Chalakkudy, Thrissur District, Kerala, 680308, India"
GOVERNMENT AYURVEDA DISPENSARY CHENGALOOR,hospital,10.4056635,76.3011244,"GOVERNMENT AYURVEDA DISPENSARY CHENGALOOR, CHENGALOOR, Pudukad Mupliyam Road, Puthukkad, Mukundapuram, Thrissur District, Kerala, 680312, India"
"Govt ayurvedic hospital,Kottappady",hospital,10.1157989,76.5851063,"Govt ayurvedic hospital,Kottappady, MDR, Kottapady, Kothamangalam, Ernakulam District, Kerala, 686695, India"
"Taluk Headquarters Hospital, Irinjalakkuda",hospital,10.3473705,76.2176635,"Taluk Headquarters Hospital, Irinjalakkuda, Potta - Moonupeedika Road, Madathikara, Mukundapuram, Thrissur District, Kerala, 680121, India"
Mitra Homoeopathy,hospital,10.0435109,76.3232099,"Mitra Homoeopathy, Vidya Nagar Road, Pathadipalam, Kalamassery, Kanayannur, Ernakulam District, Kerala, 682022, India"
take care polyclinic payachode,hospital,10.3805789,76.1191814,"take care polyclinic payachode, Ponnani-Chavakkad-Kodungallur Highway, Mathilakam, Chavakkad, Thrissur District, Kerala, 680567, India"
"Community Health Center, Ezhikkara",hospital,10.095292,76.2342403,"Community Health Center, Ezhikkara, Perumpadanna Ezhikkara Road, Chathanad, Paravur, Ernakulam District, Kerala, 683519, India"
"Primary Health Center, Eloor",hospital,10.0832761,76.2895024,"Primary Health Center, Eloor, Eloor Depot Road, Eloor, Edayar, Paravur, Ernakulam District, Kerala, 683502, India"
"Kattakayam Hospital,Kuttichira",hospital,10.3339345,76.4209682,"Kattakayam Hospital,Kuttichira, kuttikad road, Mothirakkanni, Chalakkudy, Thrissur District, Kerala, 680721, India"
N/A,hospital,10.4411703,76.2206023,"Unginchodu - Vallachira - Kadalassery Road, Cherpu, Thrissur, Thrissur District, Kerala, 680561, India"
Family Health Centre Pariyaram,hospital,10.3219789,76.4013733,"Family Health Centre Pariyaram, jeevandhara road, kuttikad- Tumbakood, Kuttikad, Chalakkudy, Thrissur District, Kerala, 680724, India"
Neethi High-Tech Lab,hospital,10.2378979,76.327831,"Neethi High-Tech Lab, Annamanada Mala Road, Chalakkudy, Thrissur District, Kerala, 680741, India"
Parakkal Dental Care And Orthodontic Centre,hospital,10.240365,76.2652513,"Parakkal Dental Care And Orthodontic Centre, annamanada -mala pallipuram road, Mala, Chalakkudy, Thrissur District, Kerala, 680732, India"
"Primary Health centre ,Avanoor",hospital,10.6081797,76.1797798,"Primary Health centre ,Avanoor, Avanoor Mundathikkod Road, Edakkulam, Thrissur, Thrissur District, Kerala, 680596, India"
GEM hospitals and research centre,hospital,10.5204383,76.2369189,"GEM hospitals and research centre, Thrissur - Mannuthy Road, Mission Quarters, Chelakkottukara, Thrissur, Thrissur District, Kerala, 680655, India"
"Urban Primary Health Centre, V R Puram",hospital,10.3090957,76.317066,"Urban Primary Health Centre, V R Puram, Sha Road, Thachudaparambu, Chalakkudy, Thrissur District, Kerala, 680722, India"
Avitis Hospital,hospital,10.6894298,76.6605608,"Avitis Hospital, Palakkad - Koduvayur - Meenakshipuram Road, Koduvayur, Chittur, Palakkad District, Kerala, 678501, India"
Medical Trust Hospital,hospital,10.3724125,76.3047065,"Medical Trust Hospital, Kodakara Bazar Road, Kodakara, Chalakkudy, Thrissur District, Kerala, 680684, India"
Indian Population Project Sub Centre Kakkayur,hospital,10.6561794,76.6374123,"Indian Population Project Sub Centre Kakkayur, Kakkayur- Pallassana Road, Pallassana, Chittur, Palakkad District, Kerala, 678512, India"
Government Ayurvedic Dispensary,hospital,10.651271,76.6321677,"Government Ayurvedic Dispensary, Koduvayur-Nenmara Road, Chittur, Palakkad District, Kerala, 678512, India"
Atreya Hospital,hospital,10.5286288,76.2264491,"Atreya Hospital, Kundukulam St, Chembukkavu, Thrissur, Thrissur District, Kerala, 680005, India"
N/A,hospital,10.6998799,76.7534534,"14/60, SH25, Chittur-Nallepilly Road, SC Colony, Manchira, Chittur, Palakkad District, Kerala, 678101, India"
N/A,hospital,10.7742544,76.638081,"Shoranur Road, Melamuri, Palakkad, Palakkad District, Kerala, 678001, India"
"Unity Hospital, Kattoor",hospital,10.3746277,76.158508,"Unity Hospital, Kattoor, Irinjalakuda Road, Kattoor, Mukundapuram, Thrissur District, Kerala, 680678, India"
Lifecare Hospital,hospital,10.0323661,76.5846648,"Lifecare Hospital, Erumalappady-Puthuppadi Road, Muvattupuzha, Ernakulam District, Kerala, 686661, India"
Primary Health Centre Kunnukara,hospital,10.1566301,76.2989421,"Primary Health Centre Kunnukara, Manjaly Athani Road, Chalakka, Paravur, Ernakulam District, Kerala, 683578, India"
Family Health Centre Eroor,hospital,9.9784164,76.3340708,"Family Health Centre Eroor, Eroor Road, Eroor, Ernakulam, Kanayannur, Ernakulam District, Kerala, 682306, India"
Ayurveda hospital varapuzha,hospital,10.0751413,76.2708801,"Ayurveda hospital varapuzha, Chettibhagam Main Road, Varapuzha, Varappuzha, Paravur, Ernakulam District, Kerala, 683517, India"
Lakshmisudha hospital Urakam,hospital,10.4417967,76.2308711,"Lakshmisudha hospital Urakam, poochinnipadam-vallachira road, Cherpu, Thrissur, Thrissur District, Kerala, 680561, India"
Lakshmikripa Hospital Urakam,hospital,10.4418868,76.2308427,"Lakshmikripa Hospital Urakam, poochinnipadam-vallachira road, Cherpu, Thrissur, Thrissur District, Kerala, 680561, India"
Ayurvedha Dispensary,hospital,10.1125591,76.2293049,"Ayurvedha Dispensary, Perumpadanna Ezhikkara Road, kedmangalam, Chathanad, Paravur, Ernakulam District, Kerala, 683519, India"
Thripunithura Ramavarma Palace Dispensary,hospital,9.9336989,76.3532833,"Thripunithura Ramavarma Palace Dispensary, Ettumanoor - Ernakulam Road, Santhi Nagar, Thrippunithura, Kanayannur, Ernakulam District, Kerala, 682301, India"
Family Health Centre Chowara,hospital,10.1362873,76.4036224,"Family Health Centre Chowara, Aluva Kalady Road, Koollikara, Chowara, Kanjoor, Aluva, Ernakulam District, Kerala, 683580, India"
Primary Health Centre Nedumbassery,hospital,10.1621116,76.3783499,"Primary Health Centre Nedumbassery, Pocket Road, Nedumbassery, Aluva, Ernakulam District, Kerala, 693111, India"
Family Health Centre Alangad,hospital,10.1099055,76.2780318,"Family Health Centre Alangad, Tharayil Bhagavathy Temple Road, Chirayam, Kongorpilly, Paravur, Ernakulam District, Kerala, 683525, India"
Primary Health Centre Thrikakkara,hospital,10.0222321,76.3166833,"Primary Health Centre Thrikakkara, Kakkanad-Edappally, NGO Quarters, Edappally, Ernakulam, Kanayannur, Ernakulam District, Kerala, 682021, India"
Primary Health Centre Manjalloor,hospital,9.9423458,76.6674579,"Primary Health Centre Manjalloor, Main Eastern Highway, Kizhakkekara, Vazhakulam, Muvattupuzha, Ernakulam District, Kerala, 686670, India"
Cochin Cancer Research Centre,hospital,10.0534587,76.3543132,"Cochin Cancer Research Centre, HMT Road, Kangarappady, Ernakulam, Kanayannur, Ernakulam District, Kerala, 682022, India"
"Community Health Centre, Varapuzha",hospital,10.0566983,76.3018712,"Community Health Centre, Varapuzha, Glass Factory Road, Manjummel, Paravur, Ernakulam District, Kerala, 683501, India"
"Primary Health Centre, Mookkannor",hospital,10.2395353,76.420921,"Primary Health Centre, Mookkannor, Ezhattumugham Road, Aluva, Ernakulam District, Kerala, 683577, India"
"Primary Health Centre, Parakkadavu",hospital,10.1950478,76.3476571,"Primary Health Centre, Parakkadavu, MDR, Vattapparambu, Elavoor Colony, Aluva, Ernakulam District, Kerala, 693572, India"
Primary Health Centre Pothanicad,hospital,10.0118264,76.6859561,"Primary Health Centre Pothanicad, Pothanicad-Chathamattom Road, Pothanikkad, Pothanicad, Kothamangalam, Ernakulam District, Kerala, 686671, India"
"Community Health Centre, Vengola",hospital,10.0814849,76.4614122,"Community Health Centre, Vengola, Mannoor - Ponjassery Road, Airapuram, Kunnathunad, Ernakulam District, Kerala, 683556, India"
Community health Centre Pallarimangalam,hospital,10.0362757,76.6868871,"Community health Centre Pallarimangalam, Oonnukal - Adivad Road, Koovalloor, Kothamangalam, Ernakulam District, Kerala, 686671, India"
Community Health Centre Varapetty,hospital,10.0489598,76.6263478,"Community Health Centre Varapetty, Check Dam, Kothamangalam, Ernakulam District, Kerala, 686666, India"
Karunnya Pharmacy,hospital,10.1155687,76.4815794,"Karunnya Pharmacy, Aluva - Munnar Road, Perumbavoor, Kunnathunad, Ernakulam District, Kerala, 683500, India"
"Mahatma Gandhi Memorial Hospital & Lab, Kavalangad",hospital,10.05244,76.7037076,"Mahatma Gandhi Memorial Hospital & Lab, Kavalangad, Kochi - Dhanushkodi Road, Kuthukhuzi, Kothamangalam, Ernakulam District, Kerala, 686693, India"
Homeo dispensery,hospital,10.1422509,76.3655286,"Homeo dispensery, Airport Road, Athani, Aluva, Ernakulam District, Kerala, 683585, India"
Government Dispensary High Court Ernakulam,hospital,10.0061874,76.2849195,"Government Dispensary High Court Ernakulam, erattukulangara road, Pachalam, Ernakulam, Kanayannur, Ernakulam District, Kerala, 682012, India"
Community Health Centre Pallipuram,hospital,10.1677492,76.1861586,"Community Health Centre Pallipuram, Kunjithai Road, Paravur, Ernakulam District, Kerala, 683515, India"
Family Health centre  Chittattukara,hospital,10.1886944,76.2125866,"Family Health centre  Chittattukara, ഗോതുരുത്ത് - വടക്കുംപുറം റോഡ്, Moothakunnam, Paravur, Ernakulam District, Kerala, 683516, India"
Family Health Center Kizhakkenchery,hospital,10.5682269,76.4904023,"Family Health Center Kizhakkenchery, Vadakkenchery-Kizhakkencherry Road, Kizhakkencherry, Alathur, Palakkad District, Kerala, 678684, India"
Family Health Center Puthucode,hospital,10.6368499,76.4489992,"Family Health Center Puthucode, Chanthapura-Vennur Road, Lakshamveedu Colony, Pattoola, Puthucode, Alathur, Palakkad District, Kerala, 678687, India"
Family Health Center Vandazhi,hospital,10.5815236,76.5196983,"Family Health Center Vandazhi, mangalam dam road, Mudappallur, Alathur, Palakkad District, Kerala, 678705, India"
Family Health Center Kuthannur,hospital,10.7310178,76.5445521,"Family Health Center Kuthannur, Chenganiyurkavu_Road, Kollad Colony, Alathur, Palakkad District, Kerala, 678721, India"
Taluk Head Quarters Hospital Alathur,hospital,10.6467672,76.5379587,"Taluk Head Quarters Hospital Alathur, Pazhayannur-Alathur Road, Ambedkar Colony, Puducode, edathil colony, Alathur, Palakkad District, Kerala, 678543, India"
Primary Health Center Kavassery,hospital,10.6579279,76.4734994,"Primary Health Center Kavassery, Local Road, Tarur, Alathur, Palakkad District, Kerala, 678548, India"
FHC KOLLENGODE,hospital,10.6154787,76.6967315,"FHC KOLLENGODE, Kollengode-Pudhunagaram Road, Kollengode, Chittur, Palakkad District, Kerala, 678506, India"
"Primary Health Centre, Vadavanoor",hospital,10.6409368,76.6899583,"Primary Health Centre, Vadavanoor, Kollengode-Pudhunagaram Road, Vadavannur, Chittur, Palakkad District, Kerala, 678504, India"
Primary Health Centre,hospital,10.6808594,76.6811543,"Primary Health Centre, Palakkad - Koduvayur - Meenakshipuram Road, Koduvayur, Chittur, Palakkad District, Kerala, 678503, India"
CHC KODUVAYUR,hospital,10.6896508,76.6599469,"CHC KODUVAYUR, Karuvannur Thara Road, Koduvayur, Chittur, Palakkad District, Kerala, 678501, India"
PHC ELAVANCHERRY,hospital,10.6077587,76.6570275,"PHC ELAVANCHERRY, Vadakkenchery - Pollachi Road, Chittur, Palakkad District, Kerala, 678688, India"
Family Health Centre Pallasanna,hospital,10.6288949,76.6422317,"Family Health Centre Pallasanna, Kollengode Road, Pallassana, Chittur, Palakkad District, Kerala, 678505, India"
FHC PERUVEMBA,hospital,10.7030243,76.6852402,"FHC PERUVEMBA, Peruvemba road, Peruvamba, Palakkad, Palakkad District, Kerala, 678531, India"
Sub Center Kovikathumkadavu,hospital,10.1623196,76.1872162,"Sub Center Kovikathumkadavu, Vypin - Pallippuram Road, Cherai, Kochi, Ernakulam District, Kerala, 683514, India"
"East Block , Medical Trust Hospital",hospital,9.9644688,76.2884556,"East Block , Medical Trust Hospital, Sahodaran Ayyappan Road, Pallimukku, Ernakulam South, Ernakulam, Kanayannur, Ernakulam District, Kerala, 680016, India"
"Family Health Center, Peruvemba",hospital,10.7028783,76.6853019,"Family Health Center, Peruvemba, Peruvemba road, Peruvamba, Palakkad, Palakkad District, Kerala, 678531, India"
Ahalia Eye Hospital,hospital,9.9933803,76.3144506,"Ahalia Eye Hospital, Salem - Kochi - Kanyakumari Road, Pallinada, Ernakulam, Kanayannur, Ernakulam District, Kerala, 680019, India"
Nayarambalam Primary Health Center,hospital,10.0572971,76.2181225,"Nayarambalam Primary Health Center, Vypin - Pallippuram Road, Thekkinezhath, Nayarambalam, Kochi, Ernakulam District, Kerala, 682509, India"
Susrutha Eye Hospital,hospital,10.0558672,76.2151066,"Susrutha Eye Hospital, Vypin - Pallippuram Road, Thekkinezhath, Nayarambalam, Kochi, Ernakulam District, Kerala, 682509, India"
ESI Dispensary,hospital,10.0479327,76.2202664,"ESI Dispensary, Vypin - Pallippuram Road, Maniyan thuruth, Njarackal, Kochi, Ernakulam District, Kerala, 682055, India"
Community Health Centre Malayidamthuruthu,hospital,10.0669091,76.410449,"Community Health Centre Malayidamthuruthu, Pukkatupady-Perumbavoor Road, Kunnathunad, Ernakulam District, Kerala, 683547, India"
Community Health Centre Vengoor,hospital,10.1412957,76.5494889,"Community Health Centre Vengoor, Ambalam-Nayarangadi Road, Kunnathunad, Ernakulam District, Kerala, 683546, India"
Community Health Centre Anthikkad,hospital,10.453137,76.1145664,"Community Health Centre Anthikkad, vilakkumkal mangattukara anjangadi road, Anthikkad, Thrissur, Thrissur District, Kerala, 680642, India"
Family Health Centre Kondazhy,hospital,10.7267588,76.3958593,"Family Health Centre Kondazhy, Sri Kirathaparvathy Road, Talappilly, Thrissur District, Kerala, 679106, India"
Karuna Medical College Chittur,hospital,10.6804121,76.7756572,"Karuna Medical College Chittur, Chittur-Vannamada Road, Chittur, Palakkad District, Kerala, 678101, India"
Udaya Ayurveda Hospital,hospital,10.7475773,76.6494532,"Udaya Ayurveda Hospital, Nila Nagar Road, Ambalappuram SC Colony, Yakkara, Palakkad, Palakkad District, Kerala, 678001, India"
Lurde Hospital Mannuthy,hospital,10.5237003,76.2627961,"Lurde Hospital Mannuthy, Mannuthy Urakkam Road, Nadathara, Thrissur, Thrissur District, Kerala, 680751, India"
C H C,hospital,9.977367,76.4270432,"Covid Health Center, Ashupathripadi - Choyikaramukal Road, Puthencruz, Kunnathunad, Ernakulam District, Kerala, 682310, India"
"Community Health Center, Pazhambalacode",hospital,10.6924312,76.4526706,"Community Health Center, Pazhambalacode, Alathur-Kazhani-Pazhambalakode Road, Kammanthara Colony, Tarur, Alathur, Palakkad District, Kerala, 678544, India"
Government Ayurveda Hospital,hospital,10.1866522,76.4806448,"Government Ayurveda Hospital, Malayattoor Road, Aluva, Ernakulam District, Kerala, 683574, India"
Lakshmi Homeo Clinic,hospital,10.1143369,76.3330517,"Lakshmi Homeo Clinic, East Kadungalloor, Manakkalathetta Colony, Valavan Mali, Aluva, Paravur, Ernakulam District, Kerala, 683110, India"
Palliative care,hospital,10.0189607,76.6275365,"Palliative care, Vazhakkulam-Kothamangalam route, Varappetty, Kothamangalam, Ernakulam District, Kerala, 686691, India"
Sree Krishna Medicals,hospital,10.1148171,76.3302021,"Sree Krishna Medicals, East Kadungalloor, Manakkalathetta Colony, Valavan Mali, Paravur, Ernakulam District, Kerala, 683208, India"
"Saffire Medical Centre, Thiruvilwamala",hospital,10.7331167,76.4292577,"Saffire Medical Centre, Thiruvilwamala, Temple Road, Thelakkattukunn Colony, Thiruvilwamala, Talappilly, Thrissur District, Kerala, 680588, India"
Police Hospital Kallekkad,hospital,10.7854572,76.5996625,"Police Hospital Kallekkad, Palghat-Ottappalam-Shoranur Road, Nurani, Edathara, Palakkad, Palakkad District, Kerala, 678611, India"
Aripalam Health Center,hospital,10.2999558,76.1941697,"Aripalam Health Center, vellangallur-mathilakam road, Vellangallur, Mukundapuram, Thrissur District, Kerala, 680662, India"
Homeo Hospital,hospital,10.1028148,76.2501271,"Homeo Hospital, Indiraji Road, Koonammavu, Paravur, Ernakulam District, Kerala, 683518, India"
K. Sreedharan Vaithyan Ayurveda Clinic,hospital,10.1428947,76.4345071,"K. Sreedharan Vaithyan Ayurveda Clinic, Nadukapunja road, Kanjoor, Aluva, Ernakulam District, Kerala, 683575, India"
tesla hospitals,hospital,10.4287747,76.2874961,"tesla hospitals, Chimminy Dam Road, Amballur, Mukundapuram, Thrissur District, Kerala, 680302, India"
"Primary Health Sub Center,Pazhampallichal",hospital,10.0589606,76.8382396,"Primary Health Sub Center,Pazhampallichal, Kochi - Dhanushkodi Road, Pazhambillichal SC Colony, Ozhividuth Colony, Irumbu Palam, Devikulam, Idukki District, Kerala, 685561, India"
Homely Dental Care,hospital,10.3761349,76.1578775,"Homely Dental Care, Irinjalakuda Road, Kattoor, Mukundapuram, Thrissur District, Kerala, 680678, India"
Homeopathy Hospital,hospital,10.3775663,76.1486352,"Homeopathy Hospital, Kattoor Edathiruthy Road, Chuloor, Kodungallur, Thrissur District, Kerala, 680703, India"
Fedra Hospital Karanchira,hospital,10.4017736,76.1584421,"Fedra Hospital Karanchira, Karanchira Road, Mukundapuram, Thrissur District, Kerala, 680102, India"
Neethi Clinic,hospital,10.3795055,76.151928,"Neethi Clinic, Irinjalakuda Road, Kattoor, Mukundapuram, Thrissur District, Kerala, 680702, India"
St Joseph Hospital Manjummel,hospital,10.0602094,76.3013527,"St Joseph Hospital Manjummel, Glass Factory Road, Manjummel, Paravur, Ernakulam District, Kerala, 683501, India"
Punarjani De-addiction & Rehabilitation Centre,hospital,10.6033835,76.2396563,"Punarjani De-addiction & Rehabilitation Centre, Athani Poomala Road, Mulakunnathukavu, Thrissur, Thrissur District, Kerala, 680581, India"
കടവത്ത് വൈദ്യം,hospital,10.6028862,76.1871157,"കടവത്ത് വൈദ്യം, Mundur-Kottekkad, Kuriyalpalam Colony, Avanoor, Thrissur, Thrissur District, Kerala, 680596, India"
ADITHYA MEDICAL AND REHABILITION CENTRE Pvt. Ltd,hospital,10.5018831,76.2159653,"ADITHYA MEDICAL AND REHABILITION CENTRE Pvt. Ltd, koorkkanchery-chiyyaram road, Kuriyachira, Koorkanchery, Thrissur, Thrissur District, Kerala, 680007, India"
Wadakanchery Digital X-Rays,hospital,10.6649422,76.2518177,"Wadakanchery Digital X-Rays, Kodungallur - Shornur Road, Ottupara, Wadakkancherry, Talappilly, Thrissur District, Kerala, 680582, India"
Shivada Ayurvedic Hospital,hospital,10.7521454,76.6875326,"Shivada Ayurvedic Hospital, Palakkad-Chittur Road, Palakkad, Palakkad District, Kerala, 678001, India"
Amrita Institute Of Science And Technology,hospital,10.0329836,76.2932623,"Amrita Hospital, Peeliyadu Road, Theenmoorthy Nagar, Edappally North, Ernakulam, Kanayannur, Ernakulam District, Kerala, 682041, India"
Sub Center,hospital,10.7058328,76.4906302,"Sub Center, Pannikulambu_Road, Pullad Colony, Chulanur, Alathur, Palakkad District, Kerala, 678674, India"
"Primary Health Centre, Kadayirippu",hospital,10.0041894,76.4565847,"Primary Health Centre, Kadayirippu, kolenchery road passing through kadayiruppu, Kariyattukunnu colony, Kadayiruppu, Kunnathunad, Ernakulam District, Kerala, 682311, India"
Government Model Homoeo Dispensary Kodikulam,hospital,9.9823299,76.7400445,"Government Model Homoeo Dispensary Kodikulam, parapuzha Road, Parapuzha, Thodupuzha, Idukki District, Kerala, 685582, India"
"Urban Primary Health Centre, Kuthapady",hospital,9.9835441,76.3139575,"Urban Primary Health Centre, Kuthapady, Mahakavi Vailoppilli Road, Palarivattom, Ernakulam, Kanayannur, Ernakulam District, Kerala, 682032, India"
"Urban Primary Health Centre, Ponnurunni",hospital,9.979997,76.320338,"Urban Primary Health Centre, Ponnurunni, Nursary School Road, Vyttila, Ernakulam, Kanayannur, Ernakulam District, Kerala, 680019, India"
"Urban Primary Health Centre, Kaloor",hospital,9.9935425,76.2883583,"Urban Primary Health Centre, Kaloor, Manapattyparambu Road, Kaloor, Ernakulam, Kanayannur, Ernakulam District, Kerala, 682017, India"
"Urban Primary Health Centre, Kennadimukku",hospital,10.0196448,76.3169704,"Urban Primary Health Centre, Kennadimukku, Kakkanad-Edappally, NGO Quarters, Edappally, Ernakulam, Kanayannur, Ernakulam District, Kerala, 682021, India"
"Urban primary Health Centre, Thammanam",hospital,9.989758,76.3065874,"Urban primary Health Centre, Thammanam, Shanthipuram Road, Pallinada, Ernakulam, Kanayannur, Ernakulam District, Kerala, 682032, India"
"Urban Primary Health Centre, Chambakkara",hospital,9.954131,76.3287701,"Urban Primary Health Centre, Chambakkara, Ettumanoor - Ernakulam Road, Petta, Thrippunithura, Kanayannur, Ernakulam District, Kerala, 682038, India"
"Urban Primary Health Centre, Kadavanthra",hospital,9.9649219,76.308301,"Urban Primary Health Centre, Kadavanthra, Water Land Road, Elamkulam, Ernakulam, Kanayannur, Ernakulam District, Kerala, 682020, India"
"Government Medical College, Ernakulam",hospital,10.0527471,76.3553898,"Government Medical College, Ernakulam, HMT Road, Kangarappady, Ernakulam, Kanayannur, Ernakulam District, Kerala, 682022, India"
"Urban Primary Health Centre, Diara Street",hospital,10.77732,76.6544823,"Urban Primary Health Centre, Diara Street, Priyadarshini Road, Tharekkad, Palakkad, Palakkad District, Kerala, 678001, India"
"Urban Primary Health Centre, Gosayikunnu",hospital,10.5088566,76.218856,"Urban Primary Health Centre, Gosayikunnu, MO Roard, ST Nagar, Kuriyachira, Thrissur, Thrissur District, Kerala, 680021, India"
Government Ayurveda Dispensary,hospital,10.7485589,76.5619989,"Government Ayurveda Dispensary, Kuzhalmannam-Peringottukurushi Road, Vengaraparambu Colony, Kottayi, Alathur, Palakkad District, Kerala, 678571, India"
Taluk Hospital,hospital,10.1962148,76.3871471,"Taluk Hospital, MDR, Edathode Paadam Colony, Angamaly, Aluva, Ernakulam District, Kerala, 683572, India"
Taluk Hospital Subcentre,hospital,10.1821376,76.370421,"Taluk Hospital Subcentre, Angamayl Road, Champannur, Angamaly, Aluva, Ernakulam District, Kerala, 683572, India"
Taluk Hospital Subcentre Champannoor,hospital,10.1877599,76.3684411,"Taluk Hospital Subcentre Champannoor, Angamayl Road, Champannur, Angamaly, Aluva, Ernakulam District, Kerala, 683572, India"
Thaikaatu moos,hospital,10.3476995,76.2150694,"Thaikaatu moos, Irinjalakuda Road, Irinjalakuda, Mukundapuram, Thrissur District, Kerala, 680100, India"
GOVT.HOMEO HOSPITAL EAST KALLOOR,hospital,9.9707941,76.7214319,"GOVT.HOMEO HOSPITAL EAST KALLOOR, Kothamangalam - Vazhakulam Road, Thodupuzha, Idukki District, Kerala, 686668, India"
Mattamana Hospital,hospital,10.112682,76.5180771,"Mattamana Hospital, MDR, Kuruppampady, Kunnathunad, Ernakulam District, Kerala, 683545, India"
Amrutha Ayurveda Hospital,hospital,9.9465204,76.3462484,"Amrutha Ayurveda Hospital, Layam Road, Petta, Thrippunithura, Kanayannur, Ernakulam District, Kerala, 682301, India"
Santhigiri Ayurvedic Hospital,hospital,10.7272796,76.7026262,"Santhigiri Ayurvedic Hospital, Kodumbu-Oolassery Road, Kodumbu, Palakkad, Palakkad District, Kerala, 678551, India"
Ayush Health Care Center,hospital,10.0488197,76.6140926,"Ayush Health Care Center, Substation Road, Muvattupuzha, Kothamangalam, Ernakulam District, Kerala, 686691, India"
NHM AYURVEDA DISPENSARY KODUNGALLUR,hospital,10.2287522,76.1834027,"NHM AYURVEDA DISPENSARY KODUNGALLUR, Thiruvallur, Chandappura-Eriyad Road, Chandapura, Kodungallur, Thrissur District, Kerala, 680664, India"
ayush phc Kathikudam,hospital,10.2590563,76.3278085,"ayush phc Kathikudam, 137, Krishi Bhavan Road, Chalakudy, Chalakkudy, Thrissur District, Kerala, 680309, India"
"Govt Ayurveda Dispensary, Poomangalam",hospital,10.3060139,76.1981486,"Govt Ayurveda Dispensary, Poomangalam, Kalparamba-cheenakuzhi, Mukundapuram, Thrissur District, Kerala, 680688, India"
Ayush Ayurveda PHC Meloor,hospital,10.2950516,76.3610956,"Ayush Ayurveda PHC Meloor, MDR, Kizhake Chalakudi, Chalakkudy, Thrissur District, Kerala, 680311, India"
"Urban Primary Health Centre, Vattekunnam",hospital,10.0402557,76.3105798,"Urban Primary Health Centre, Vattekunnam, Kerala Museum Road, Koonamthai, South Kalamassery, Kanayannur, Ernakulam District, Kerala, 682033, India"
"Ayurvedic Hospital, Pudhucode",hospital,10.6277784,76.4519532,"Ayurvedic Hospital, Pudhucode, Chanthapura-Vennur Road, Lakshamveedu Colony, Pattoola, Puthucode, Alathur, Palakkad District, Kerala, 678687, India"
GAD KALLUR,hospital,10.4567256,76.3075386,"GAD KALLUR, 111, MDR, Mukundapuram, Thrissur District, Kerala, 680317, India"
"Govt. Ayurveda Dispensary , Avanoor",hospital,10.6132111,76.1801243,"Govt. Ayurveda Dispensary , Avanoor, 132, Avanoor Mundathikkod Road, Edakkulam, Thrissur, Thrissur District, Kerala, 680596, India"
Urban Primary Health Centre Vennakkara,hospital,10.7630544,76.637415,"Urban Primary Health Centre Vennakkara, Street No. 4, Thondikulam, Palakkad, Palakkad District, Kerala, 678001, India"
Govt.Ayurveda Dispensary Edavilangu,hospital,10.2401045,76.1642464,"Govt.Ayurveda Dispensary Edavilangu, Krishi Bhavan Road, Edavilangu, Kodungallur, Thrissur District, Kerala, 680671, India"
Homeo Dispensery East Kuttichira,hospital,10.3273156,76.4280212,"Homeo Dispensery East Kuttichira, Quarry Road, Chalakkudy, Thrissur District, Kerala, 680724, India"
granth,hospital,10.063749,76.2464597,"granth, Kadamakkudy road( pocket road), Kadamakkudy, Ernakulam, Kanayannur, Ernakulam District, Kerala, 682027, India"
Mar Themotheos Hospital,hospital,10.5317792,76.2417769,"Mar Themotheos Hospital, Sevens St, Thrissur, Thrissur District, Kerala, 680657, India"
Doctor Physician,hospital,9.9457169,76.3484987,"Doctor Physician, Main Road, NH85, Thrippunithura, Kanayannur, Ernakulam District, Kerala, 682301, India"
Thonnurkkara Public health centre,hospital,10.6880464,76.316707,"Thonnurkkara Public health centre, Vattulli Road, Thonoorkara, Talappilly, Thrissur District, Kerala, 680610, India"
palliative care center,hospital,10.7317338,76.6372764,"palliative care center, Kannadi - Kannanur Road, Kannanur, Palakkad, Palakkad District, Kerala, 678701, India"
vijayasree eye hospital,hospital,10.5243875,76.2076675,"vijayasree eye hospital, Dilkush Lane, Kottappuram, Thrissur, Thrissur District, Kerala, 680004, India"
Malabar eye hospital,hospital,10.5269756,76.2105537,"Malabar eye hospital, AR Menon Road, Kottappuram, Thrissur, Thrissur District, Kerala, 680001, India"
niyaama ayurveda medical centre,hospital,10.5248675,76.2076716,"niyaama ayurveda medical centre, Dilkhush Road, Kottappuram, Thrissur, Thrissur District, Kerala, 680001, India"
Family Health Center Edalamkunn Ground,hospital,10.6998333,76.2754503,"Family Health Center Edalamkunn Ground, pazhayannur Road, Pattamkulamb Colony, Vezhakode, Mullurkara, Talappilly, Thrissur District, Kerala, 680583, India"
Homeo Hospital Venginissery,hospital,10.4649871,76.2000608,"Homeo Hospital Venginissery, Palakkal-Ammadam Road, Thrissur, Thrissur District, Kerala, 680563, India"
Ayurvedha Hospital,hospital,10.4349613,76.0940937,"Ayurvedha Hospital, Jumamasjid Road, Thalikulam, Chavakkad, Thrissur District, Kerala, 680569, India"
Govt homeo dispensary,hospital,10.0009723,76.2447972,"Govt homeo dispensary, Poopady Bridge, Kochi, Ernakulam District, Kerala, 682508, India"
Primary health centre vallarpadam,hospital,10.0007893,76.245324,"Primary health centre vallarpadam, Poopady Bridge, Kochi, Ernakulam District, Kerala, 682508, India"
Family welfare centre Nagaripuram,hospital,10.7893068,76.4667582,"Family welfare centre Nagaripuram, Peradikkunnu road, Pathiripala, Palakkad, Palakkad District, Kerala, 679301, India"
PHC,hospital,10.440558,76.2055601,"PHC, CherpChenam Road, Cherpu, Thrissur, Thrissur District, Kerala, 680561, India"
PHC,hospital,10.4513985,76.2189411,"PHC, Parakovil Road, Thrissur, Thrissur District, Kerala, 680561, India"
Karunya Hospital,hospital,10.511527,76.2587422,"Karunya Hospital, Salem - Kochi - Kanyakumari Highway, Nadathara, Thrissur, Thrissur District, Kerala, 680751, India"
"Primary Health Center, Odannur",hospital,10.784463,76.5554311,"Primary Health Center, Odannur, parli-kottai road, Palakkad, Palakkad District, Kerala, 678612, India"
Government Ayurveda Hospital,hospital,10.7965807,76.5630107,"Government Ayurveda Hospital, Palghat-Ottappalam-Shoranur Road, Nurani, Edathara, Palakkad, Palakkad District, Kerala, 678611, India"
"ESI Dispensary, Parali",hospital,10.7956848,76.5627634,"ESI Dispensary, Parali, Palghat-Ottappalam-Shoranur Road, Nurani, Edathara, Palakkad, Palakkad District, Kerala, 678611, India"
ESI Dispensary Angamaly,hospital,10.1909855,76.3883808,"ESI Dispensary Angamaly, Joseph Plaza Shopping Complex, MC Road, Angamaly, Aluva, Ernakulam District, Kerala, 683572, India"
Jubilee Mission Medical Institute,hospital,10.5206703,76.2227693,"Jubilee Mission Medical Institute, Mission Quarters Road, ST Nagar, Poothole, Thrissur, Thrissur District, Kerala, 680021, India"
St. James Hospital,hospital,10.3150611,76.3351444,"St. James Hospital, Old NH Chalakudy, Chalakudy, Chalakkudy, Thrissur District, Kerala, 680307, India"
Jubilee Mission Hospital,hospital,10.5200819,76.2263381,"Jubilee Mission Hospital, Jubilee Mission P.O, Mannamangalam Road, Mission Quarters, Chelakkottukara, Thrissur, Thrissur District, Kerala, 680005, India"
Juibilee Mission Hrudyalaya,hospital,10.519871,76.2272994,"Juibilee Mission Hrudyalaya, Mannamangalam Road, Mission Quarters, Chelakkottukara, Thrissur, Thrissur District, Kerala, 680005, India"
"Government Homoeo Dispensary, Lakkidi Perur",hospital,10.7770723,76.4425298,"Government Homoeo Dispensary, Lakkidi Perur, Palghat-Ottappalam-Shornur Road, Parali, Ottappalam, Palakkad District, Kerala, 679301, India"
"Primary Health Center, Lakkidi Perur",hospital,10.7742561,76.4286581,"Primary Health Center, Lakkidi Perur, Palakkad-Ponnani Road, Ottappalam, Palakkad District, Kerala, 679103, India"
Pookkattukunnu Health Center,hospital,10.7581632,76.4736316,"Pookkattukunnu Health Center, Kottayi-Perinkottukurushi Road, Narangaparambu Colony, Perinkottukurushi, Alathur, Palakkad District, Kerala, 678574, India"
Government Primary Hospital,hospital,10.7702084,76.4822479,"Government Primary Hospital, Athirkkad road, Pathiripala, Ottappalam, Palakkad District, Kerala, 678642, India"
"Primary Health Centre, Thammanam",hospital,9.9896091,76.3067297,"Primary Health Centre, Thammanam, Shanthipuram Road, Pallinada, Ernakulam, Kanayannur, Ernakulam District, Kerala, 682032, India"
Cochin Corporation Homeo Dispensery,hospital,9.9807774,76.3201955,"Cochin Corporation Homeo Dispensery, Nursary School Road, Vyttila, Ernakulam, Kanayannur, Ernakulam District, Kerala, 680019, India"
"Primary Health Centre, Thenkurissi",hospital,10.708819,76.6312684,"Primary Health Centre, Thenkurissi, Kuzhalmannam-Koduvayur Road, Thenkkurussi, Alathur, Palakkad District, Kerala, 678671, India"
"Government Homoeo Dispensary, Thenkurissi",hospital,10.6770477,76.6151803,"Government Homoeo Dispensary, Thenkurissi, Thenkurushi Road, Thenkkurussi, Alathur, Palakkad District, Kerala, 678502, India"
"Community Health Centre, Kuzhalmannam",hospital,10.7154953,76.5968383,"Community Health Centre, Kuzhalmannam, Salem - Kochi - Kanyakumari Highway, Kuzhalmannam, Alathur, Palakkad District, Kerala, 678702, India"
Ayurveda Hospital,hospital,10.6791091,76.6882706,"Ayurveda Hospital, Kollengode-Pudhunagaram Road, Vadavannur, Chittur, Palakkad District, Kerala, 678503, India"
"Government Ayurveda Dispensary, Vadavannur",hospital,10.6409341,76.6893988,"Government Ayurveda Dispensary, Vadavannur, Kollengode-Pudhunagaram Road, Vadavannur, Chittur, Palakkad District, Kerala, 678504, India"
N/A,hospital,9.9617178,76.4105859,"Road to Girl's Hostel, Grace Valley, Varikkoli, Kunnathunad, Ernakulam District, Kerala, 682308, India"
Family health centre,hospital,10.1033088,76.3900272,"Family health centre, marampilly-thadiyittuparampu rd, Aluva, Ernakulam District, Kerala, 683105, India"
Public Health Centre,hospital,9.9090061,76.5198065,"Public Health Centre, Anchelpetty-Pampakuda Road, Anchelpetty, Muvattupuzha, Ernakulam District, Kerala, 686667, India"
Community Health center Ramamangalm,hospital,9.9235373,76.52386,"Community Health center Ramamangalm, MDR, Pampakuda, Muvattupuzha, Ernakulam District, Kerala, 686667, India"
St Johns Hospital,hospital,9.9195789,76.5215966,"St Johns Hospital, MDR, Neythusalapady, Pampakuda, Muvattupuzha, Ernakulam District, Kerala, 686663, India"
Government Hospital Child Vaccination Centre,hospital,10.2028032,76.4227902,"Government Hospital Child Vaccination Centre, College Road, Mattoor, Kalady, Vivekananda Colony`, Thuravoor, Aluva, Ernakulam District, Kerala, 683586, India"
Family Welfare Centre Panangattukara,hospital,10.6414787,76.2540698,"Family Welfare Centre Panangattukara, Mangalam Road, Ottupara, Wadakkancherry, Talappilly, Thrissur District, Kerala, 680582, India"
Daya Emergency Care Center,hospital,10.403892,76.1117623,"Daya Emergency Care Center, Ponnani-Chavakkad-Kodungallur Highway, Mathilakam, Chavakkad, Thrissur District, Kerala, 680567, India"
Valapad Unani Hospital,hospital,10.4015205,76.1129092,"Valapad Unani Hospital, Ponnani-Chavakkad-Kodungallur Highway, Mathilakam, Chavakkad, Thrissur District, Kerala, 680567, India"
Dhaya healthcare and wellness centre kazhani chungam,hospital,10.6583577,76.5007081,"Dhaya healthcare and wellness centre kazhani chungam, Alathur-Kazhani-Pazhambalakode Road, Mannazhi Colony, Alathur, Palakkad District, Kerala, 678543, India"
Physio Physiotherapy Center,hospital,10.6613527,76.4970069,"Physio Physiotherapy Center, Alathur-Kazhani-Pazhambalakode Road, Mannazhi Colony, Alathur, Palakkad District, Kerala, 678543, India"
DHAYA HEALTH CARE AND WELLNESS CENTER,hospital,10.6568281,76.5026386,"DHAYA HEALTH CARE AND WELLNESS CENTER, Pazhayannur-Alathur Road, Ambedkar Colony, Puducode, edathil colony, Alathur, Palakkad District, Kerala, 678543, India"
Govt Health Centre Hospital,hospital,10.5734527,76.496744,"Govt Health Centre Hospital, vadakkenchery kunnangad road, Vadakkenchery, Alathur, Palakkad District, Kerala, 678684, India"
Pulse Hospital,hospital,10.6324387,76.6579343,"Pulse Hospital, Kakkayur- Pallassana Road, Pallassana, Chittur, Palakkad District, Kerala, 678505, India"
Government ayurvedic Hospital,hospital,10.699904,76.691197,"Government ayurvedic Hospital, temple Road, Peruvamba, Palakkad, Palakkad District, Kerala, 678531, India"
Medicare Hospitals,hospital,10.5926013,76.4832551,"Medicare Hospitals, Vadakkenchery - Pollachi Road, Vadakkenchery, Alathur, Palakkad District, Kerala, 678684, India"
Divine Medical Mission Hospital,hospital,10.5892445,76.4831793,"Divine Medical Mission Hospital, Vadakkenchery-Kizhakkencherry Road, Kizhakkencherry, Alathur, Palakkad District, Kerala, 678684, India"
Karunya Hospital,hospital,10.6003879,76.4886246,"Karunya Hospital, Salem - Kochi - Kanyakumari Highway, Vadakkenchery, Alathur, Palakkad District, Kerala, 678684, India"
Renai Medicity,hospital,10.0079415,76.3035506,"Renai Medicity, Old NH 47, Sonia Nagar, Ernakulam, Kanayannur, Ernakulam District, Kerala, 682025, India"
safety ground,hospital,10.0480159,76.3303211,"safety ground, SOE Central Ave, Pathadipalam, Kalamassery, Kanayannur, Ernakulam District, Kerala, 683503, India"
KPM Eye Hospital ,hospital,9.9718356,76.2840697,"KPM Eye Hospital , Hospital Road, Boat Jetty, Shenoys, Ernakulam, Kanayannur, Ernakulam District, Kerala, 682016, India"
St Joseph's Hospital,hospital,10.4490479,76.278251,"St Joseph's Hospital, Kallor road, Amballur, Mukundapuram, Thrissur District, Kerala, 680317, India"
Doctor Peter's Clinic,hospital,9.962874,76.3566938,"Doctor Peter's Clinic, Kavaraparambu Road, Irumpanam, Thrippunithura, Kanayannur, Ernakulam District, Kerala, 682309, India"
Dr. Tony Fernandez Eye Hospital,hospital,10.1082064,76.3543892,"Dr. Tony Fernandez Eye Hospital, Hill Road, Thottakkattukara, Aluva, Ernakulam District, Kerala, 683101, India"
Fire and Rescue Station Vallarpadam,fire_station,10.0695041,76.3136407,"Fire and Rescue Station Vallarpadam, Vallarpadam ICT Highway, Pathalam, Paravur, Ernakulam District, Kerala, 683501, India"
Fire and Rescue Station,fire_station,9.9691402,76.2848326,"Fire and Rescue Station, Club Road, Boat Jetty, Ernakulam South, Kochi, Kanayannur, Ernakulam District, Kerala, 682011, India"
FIRESTATION THRISSUR,fire_station,10.5171301,76.217015,"FIRESTATION THRISSUR, High Road, Mission Quarters, Poothole, Thrissur, Thrissur District, Kerala, 680021, India"
"Fire Station, North Paravur",fire_station,10.1517378,76.2420256,"Fire Station, North Paravur, Fire Station Road, North Paravur, Paravur, Ernakulam District, Kerala, 683520, India"
"Regional Fire Office, Fire and Rescue Services, Palakkad",fire_station,10.7598967,76.6591177,"Regional Fire Office, Fire and Rescue Services, Palakkad, Fire Station Road, Padath SC Colony, Yakkara, Palakkad, Palakkad District, Kerala, 678001, India"
District Fire Office.Palakkad,fire_station,10.7598248,76.6591183,"District Fire Office.Palakkad, Fire Station Road, Padath SC Colony, Yakkara, Palakkad, Palakkad District, Kerala, 678001, India"
District Fire and Rescue Office Thrissur,fire_station,10.5175017,76.2168719,"District Fire and Rescue Office Thrissur, High Road, Mission Quarters, Poothole, Thrissur, Thrissur District, Kerala, 680021, India"
District Fire and Rescue Office Kadavanthra,fire_station,9.9743614,76.2955552,"District Fire and Rescue Office Kadavanthra, Gandhi Nagar Road, Pulleppady, Gandhi Nagar, Ernakulam, Kanayannur, Ernakulam District, Kerala, 682020, India"
Kerala fire and rescue station,fire_station,10.1782505,76.3741099,"Kerala fire and rescue station, Angamayl Road, Champannur, Angamaly, Aluva, Ernakulam District, Kerala, 683572, India"
Fire station,fire_station,10.2396298,76.2053543,"Fire station, Pullut P O, Fire Station Road, Pullut, Kodungallur, Thrissur District, Kerala, 680663, India"
"Fire Station, North Paravur",fire_station,10.1492169,76.234507,"Fire Station, North Paravur, Aluva - Paravur Road, North Paravur, Paravur, Ernakulam District, Kerala, 683513, India"
"Fire and rescue station ,Tripunithra",fire_station,9.9358139,76.3520539,"Fire and rescue station ,Tripunithra, Kannankulangara, Ettumanoor - Ernakulam Road, Santhi Nagar, Thrippunithura, Kanayannur, Ernakulam District, Kerala, 682301, India"
Fire Station,fire_station,10.0721672,76.317397,"Fire Station, Edayar Road, Pathalam, Binanipuram, Paravur, Ernakulam District, Kerala, 683117, India"
Fire Station Chalakudy,fire_station,10.3014815,76.3379985,"Fire Station Chalakudy, Police Station Road, Chalakudy, Chalakkudy, Thrissur District, Kerala, 680307, India"
